ID,Location,LocationType,Adress,Country,RegionCode,StateAbbr,State,City,PostalCode,Phone,Latitude,Longitude,OpeningDate
24350,Lincoln,Warehouse,1620 PINE LAKE ROAD,US,MW,NE,Nebraska,LINCOLN,68512-3612,(531) 333-7559,40.740257,-96.699317,10/28/2017
24351,La Vista,Warehouse,12515 PORTSIDE PARKWAY,US,MW,NE,Nebraska,LA VISTA,68128-5622,(402) 378-7398,41.17795,-96.10429,10/26/2016
24352,Omaha,Warehouse,12300 W DODGE RD,US,MW,NE,Nebraska,OMAHA,68154-2382,(402) 952-3240,41.263601,-96.102275,10/18/2007
24353,Wichita,Warehouse,9700 E KELLOGG,US,TE,KS,Kansas,WICHITA,67207-1821,(316) 226-7142,37.67975,-97.224893,6/3/2015
24354,Lenexa,Warehouse,9350 MARSHALL DR,US,MW,KS,Kansas,LENEXA,66215-3845,(913) 227-3703,38.958687,-94.731243,11/27/2001
24355,N Kansas City,Warehouse,1600 NW 88TH ST,US,MW,MO,Missouri,KANSAS CITY,64155-2410,(816) 857-7086,39.25469,-94.599115,5/18/2017
24356,Overland Park,Warehouse,12221 BLUE VALLEY PKWY,US,MW,KS,Kansas,OVERLAND PARK,66213-2640,(913) 217-2050,38.9069,-94.670682,2/21/2002
24357,Kansas City,Warehouse,241 E LINWOOD BLVD,US,MW,MO,Missouri,KANSAS CITY,64111-1119,(816) 216-0003,39.068352,-94.582584,1/12/2001
24358,Independence,Warehouse,19040 E VALLEY VIEW PKWY,US,MW,MO,Missouri,INDEPENDENCE,64055-7004,(816) 200-2003,39.036082,-94.355813,10/18/2001
24359,Sioux Falls,Warehouse,3700 S GRANGE AVE,US,MW,SD,South Dakota,SIOUX FALLS,57105-6359,(605) 988-9140,43.51246,-96.74089,10/3/2013
24360,West Des Moines,Warehouse,7205 MILLS CIVIC PKWY,US,MW,IA,Iowa,WEST DES MOINES,50266-8140,(515) 222-2920,41.56148,-93.805176,12/7/2004
24361,Oklahoma City,Warehouse,13200 N WESTERN AVE,US,TE,OK,Oklahoma,OKLAHOMA CITY,73114,(405) 832-5102,35.604809,-97.530418,5/16/2019
24362,Tulsa,Warehouse,10220 S MEMORIAL DR,US,TE,OK,Oklahoma,TULSA,74133-7179,(918) 710-2220,36.016489,-95.886624,4/21/2016
24363,Moore,Warehouse,2651 S. TELEPHONE RD,US,TE,OK,Oklahoma,MOORE,73160-0008,(405) 300-7661,35.3132582,-97.4967976,7/22/2021
24364,Parker,Warehouse,18414 COTTONWOOD DR,US,SD,CO,Colorado,PARKER,80138-8876,(303) 583-1939,39.55879,-104.776443,8/22/2008
24365,Aurora,Warehouse,1471 S HAVANA ST,US,SD,CO,Colorado,AURORA,80012-4013,(303) 750-2116,39.689939,-104.86595,11/3/1990
24366,E Colorado Springs,Warehouse,5885 BARNES RD,US,SD,CO,Colorado,COLORADO SPRINGS,80922-3512,(719) 591-3002,38.89349,-104.71827,2/20/2008
24367,Douglas County,Warehouse,8686 PARK MEADOWS CENTER DR,US,SD,CO,Colorado,LITTLETON,80124-5129,(303) 708-0012,39.560636,-104.878905,11/20/1997
24368,Springfield,Warehouse,279 N. EASTGATE AVENUE,US,MW,MO,Missouri,SPRINGFIELD,65802,(417) 512-8939,37.210172,-93.223047,8/18/2021
24369,W Colorado Springs,Warehouse,5050 N NEVADA AVE,US,SD,CO,Colorado,COLORADO SPRINGS,80918-8602,(719) 264-5010,38.90399,-104.81731,10/29/2009
24370,Thornton,Warehouse,16375 N. WASHINGTON ST,US,SD,CO,Colorado,THORNTON,80023-8907,(303) 474-3247,39.993433,-104.978226,2/21/2007
24371,Timnath,Warehouse,4705 WEITZEL ST,US,SD,CO,Colorado,TIMNATH,80547-4703,(970) 416-6115,40.520491,-104.989036,10/2/2014
24372,Sheridan,Warehouse,4000 RIVER POINT PKWY,US,SD,CO,Colorado,SHERIDAN,80110-3316,(303) 200-1830,39.644394,-105.006393,8/21/2008
24373,Denver Bus Ctr,Warehouse,400 S ZUNI ST,US,BD,CO,Colorado,DENVER,80223-1969,(303) 830-4529,39.70884,-105.01568,6/1/2016
24374,Westminster CO,Warehouse,6400 W 92ND AVE,US,SD,CO,Colorado,WESTMINSTER,80031-2952,(303) 650-1476,39.863667,-105.066961,11/3/1990
24375,Arvada,Warehouse,5195 WADSWORTH BLVD,US,SD,CO,Colorado,ARVADA,80002-4617,(303) 463-3603,39.791059,-105.08147,9/19/2001
24376,SW Denver,Warehouse,7900 W QUINCY AVE,US,SD,CO,Colorado,LITTLETON,80123-1350,(303) 933-4931,39.638706,-105.085093,8/1/1991
24377,Superior,Warehouse,600 MARSHALL RD,US,SD,CO,Colorado,SUPERIOR,80027-9730,(720) 587-1000,39.95974,-105.17175,4/15/1999
24378,Coralville,Warehouse,2900 HEARTLAND DR,US,MW,IA,Iowa,CORALVILLE,52241-2740,(319) 545-3200,41.69812,-91.61474,6/27/2012
24379,Rochester MN,Warehouse,2020 COMMERCE DR NW,US,MW,MN,Minnesota,ROCHESTER,55901-3246,(507) 286-1860,44.05099,-92.52051,11/16/2012
24380,St Peters,Warehouse,200 COSTCO WAY,US,MW,MO,Missouri,SAINT PETERS,63376-4385,(636) 970-4004,38.796366,-90.608505,5/8/2001
24381,Burnsville,Warehouse,14050 BURNHAVEN DR,US,MW,MN,Minnesota,BURNSVILLE,55337-4407,(952) 229-6449,44.748827,-93.293062,11/23/2010
24382,Eden Prairie,Warehouse,12011 TECHNOLOGY DR,US,MW,MN,Minnesota,EDEN PRAIRIE,55344-3620,(952) 943-4801,44.862129,-93.429645,11/18/2004
24383,Davenport,Warehouse,2790 E 53RD ST,US,MW,IA,Iowa,DAVENPORT,52807-3007,(563) 893-7004,41.574795,-90.524329,10/20/2018
24384,Manchester MO,Warehouse,301 HIGHLANDS BLVD DRIVE,US,MW,MO,Missouri,MANCHESTER,63011-4385,(636) 686-7400,38.59694,-90.5054,11/17/2009
24385,St Louis Park,Warehouse,5801 W 16TH ST,US,MW,MN,Minnesota,SAINT LOUIS PARK,55416-1446,(763) 582-9603,44.967617,-93.350369,11/16/2000
24386,Eagan,Warehouse,995 BLUE GENTIAN RD,US,MW,MN,Minnesota,EAGAN,55121-1542,(612) 439-8060,44.85736,-93.129481,11/15/2019
24387,Gypsum,Warehouse,170 COOLEY MESA RD,US,SD,CO,Colorado,GYPSUM,81637-9707,(970) 328-7603,39.643382,-106.888696,10/20/2006
24388,Maple Grove,Warehouse,11330 FOUNTAINS DR,US,MW,MN,Minnesota,MAPLE GROVE,55369-7200,(763) 494-8050,45.091573,-93.424037,10/27/2006
24389,S St Louis,Warehouse,4200 RUSTY RD,US,MW,MO,Missouri,SAINT LOUIS,63128-1973,(314) 894-7950,38.5083,-90.3392,9/20/2002
24390,Minneapolis Bus Ctr,Warehouse,3311 BROADWAY ST NE,US,BD,MN,Minnesota,MINNEAPOLIS,55413-4553,(651) 502-7600,44.99941,-93.21584,6/27/2018
24391,St Cloud,Warehouse,3636 2ND ST S,US,MW,MN,Minnesota,SAINT CLOUD,56301-3732,(320) 316-9865,45.549576,-94.202718,6/29/2019
24392,Woodbury,Warehouse,7070 TAMARACK ROAD,US,MW,MN,Minnesota,WOODBURY,55125-1205,(612) 540-5458,44.938785,-92.963576,11/15/2017
24393,Coon Rapids,Warehouse,12547 RIVERDALE BLVD NW,US,MW,MN,Minnesota,MINNEAPOLIS,55448-6708,(763) 712-7763,45.198629,-93.350161,10/23/2001
24394,Maplewood,Warehouse,1431 BEAM AVE,US,MW,MN,Minnesota,MAPLEWOOD,55109-1064,(612) 486-1740,45.028044,-93.040862,8/28/2008
24395,McKinney,Warehouse,3650 W UNIVERSITY DR,US,TE,TX,Texas,MCKINNEY,75071-2934,(469) 347-6421,33.217619,-96.664438,7/25/2018
24396,Frisco,Warehouse,11220 DALLAS PKWY,US,TE,TX,Texas,FRISCO,75033-4102,(469) 200-7116,33.17101,-96.839302,10/22/2011
24397,Lubbock TX,Warehouse,6020 34TH ST,US,TE,TX,Texas,LUBBOCK,79407-3102,(806) 784-1450,33.563294,-101.94455,11/15/2013
24398,East Peoria,Warehouse,301 W WASHINGTON ST,US,MW,IL,Illinois,EAST PEORIA,61611-2036,(309) 427-2930,40.668718,-89.583786,11/14/2012
24399,W Plano,Warehouse,1701 DALLAS PKWY,US,TE,TX,Texas,PLANO,75093-4520,(972) 246-2203,33.02287,-96.830185,9/27/2001
24400,E Plano,Warehouse,3800 N CENTRAL EXPY,US,TE,TX,Texas,PLANO,75074-2221,(972) 244-0003,33.044569,-96.69958,9/21/2000
24401,Lewisville,Warehouse,851 STATE HIGHWAY 121 BYP,US,TE,TX,Texas,LEWISVILLE,75067-4158,(469) 948-1026,32.996785,-96.963762,8/25/2004
24402,Southlake,Warehouse,2601 E STATE HIGHWAY 114,US,TE,TX,Texas,SOUTHLAKE,76092-6668,(817) 749-2800,32.942905,-97.112508,4/27/2001
24403,N Fort Worth,Warehouse,8900 TEHAMA RIDGE PKWY,US,TE,TX,Texas,FORT WORTH,76177-2004,(817) 806-9833,32.899534,-97.32137,5/9/2014
24404,Little Rock,Warehouse,16901 CHENAL PARKWAY,US,TE,AR,Arkansas,LITTLE ROCK,72223,(501) 817-8603,34.757188,-92.453639,7/21/2021
24405,Dallas,Warehouse,8055 CHURCHILL WAY,US,TE,TX,Texas,DALLAS,75251-2149,(469) 680-7546,32.918992,-96.768165,5/11/2017
24406,Dallas Bus Ctr,Warehouse,8282 PARK LN,US,BD,TX,Texas,DALLAS,75231-6023,(469) 498-6623,32.871392,-96.762924,9/5/2019
24407,West Fargo ND,Warehouse,750 23RD AVE EAST,US,MW,ND,North Dakota,WEST FARGO,58078-7804,(701) 281-2220,46.844268,-96.88671,10/23/2012
24408,Rockwall,Warehouse,1225 STATE HIGHWAY 276,US,TE,TX,Texas,ROCKWALL,75032-9376,(972) 772-1602,32.908077,-96.446014,4/8/2009
24409,Fort Worth,Warehouse,5300 OVERTON RIDGE BLVD,US,TE,TX,Texas,FORT WORTH,76132-3301,(817) 210-0003,32.676165,-97.405063,9/21/2000
24410,Bismarck,Warehouse,1325 57TH AVE NE,US,MW,ND,North Dakota,BISMARCK,58503-6581,(701) 415-7003,46.8646835,-100.7712207,8/25/2020
24411,Baxter,Warehouse,13650 ELDER DR,US,MW,MN,Minnesota,BAXTER,56425-8818,(218) 855-5740,46.349445,-94.249024,10/24/2012
24412,Arlington,Warehouse,600 W ARBROOK BLVD,US,TE,TX,Texas,ARLINGTON,76014-3702,(817) 417-1603,32.684692,-97.11355,4/27/2001
24413,Duncanville,Warehouse,250 W HIGHWAY 67,US,TE,TX,Texas,DUNCANVILLE,75137-4415,(469) 221-8113,32.621388,-96.910871,8/9/2006
24414,Middleton,Warehouse,2150 DEMING WAY,US,MW,WI,Wisconsin,MIDDLETON,53562-5507,(608) 824-3950,43.097728,-89.52346,8/20/2008
24415,Loves Park,Warehouse,5000 STADIUM DRIVE,US,MW,IL,Illinois,LOVES PARK,61111,(779) 513-8397,42.32126,-88.961625,8/23/2019
24416,Sun Prairie,Warehouse,2850 HOEPKER RD,US,MW,WI,Wisconsin,SUN PRAIRIE,53590-9334,(608) 825-4001,43.16505,-89.27459,11/15/2012
24417,Champaign,Warehouse,2002 N. NEIL ST,US,MW,IL,Illinois,CHAMPAIGN,61820,(217) 600-6538,40.1405327,-88.2449229,10/22/2020
24418,SE Albuquerque,Warehouse,500 EUBANK BLVD SE,US,SD,NM,New Mexico,ALBUQUERQUE,87123-3338,(505) 332-6603,35.068,-106.5307,10/24/2000
24419,NW Albuquerque,Warehouse,9955 COORS BYPASS NW,US,SD,NM,New Mexico,ALBUQUERQUE,87114-6196,(505) 922-7400,35.195629,-106.662036,12/7/2007
24420,Albuquerque,Warehouse,1420 N RENAISSANCE BLVD NE,US,SD,NM,New Mexico,ALBUQUERQUE,87107-7008,(505) 345-9411,35.137401,-106.616395,12/1/1984
24421,St Charles,Warehouse,221 S RANDALL RD,US,MW,IL,Illinois,SAINT CHARLES,60174-1524,(630) 549-2024,41.90885,-88.339954,11/14/2008
24422,Lake In The Hills,Warehouse,250 N RANDALL RD,US,MW,IL,Illinois,LAKE IN THE HILLS,60156-5943,(847) 960-9910,42.179,-88.3383,7/8/2004
24423,Naperville,Warehouse,1320 S ROUTE 59,US,MW,IL,Illinois,NAPERVILLE,60564-5944,(630) 328-2900,41.727494,-88.206013,7/1/2003
24424,Plainfield,Warehouse,16261 S. BOULEVARD PLACE,US,MW,IL,Illinois,PLAINFIELD,60586,(815) 676-1170,41.5888021,-88.1690002,11/11/2020
24425,NE Naperville,Warehouse,1255 EAST OGDEN AVE,US,MW,IL,Illinois,NAPERVILLE,60563,(331) 215-5612,41.79853024,-88.12367612,8/19/2021
24426,Bloomingdale,Warehouse,505 W ARMY TRAIL RD,US,MW,IL,Illinois,BLOOMINGDALE,60108-1391,(630) 351-3059,41.939574,-88.129776,12/7/2001
24427,Bolingbrook,Warehouse,830 E BOUGHTON RD,US,MW,IL,Illinois,BOLINGBROOK,60440-2355,(630) 410-0702,41.726343,-88.033104,11/18/2010
24428,Lake Zurich,Warehouse,680 S RAND RD,US,MW,IL,Illinois,LAKE ZURICH,60047-3409,(847) 540-3050,42.184931,-88.092111,2/21/2001
24429,Schaumburg,Warehouse,1375 N MEACHAM RD,US,MW,IL,Illinois,SCHAUMBURG,60173-4805,(847) 969-0790,42.05506,-88.044993,11/17/1998
24430,Oak Brook,Warehouse,1901 W 22ND ST,US,MW,IL,Illinois,OAK BROOK,60523-1785,(630) 928-0235,41.846399,-87.962962,11/17/1998
24431,Orland Park,Warehouse,9915 W 159TH ST,US,MW,IL,Illinois,ORLAND PARK,60467-4572,(708) 645-5336,41.601236,-87.8601,11/30/2006
24432,Mt Prospect,Warehouse,999 N ELMHURST RD,US,MW,IL,Illinois,MOUNT PROSPECT,60056-1133,(847) 660-2000,42.083219,-87.93683,10/13/2004
24433,NE Memphis,Warehouse,2431 N GERMANTOWN PKWY,US,SE,TN,Tennessee,CORDOVA,38016-4494,(901) 214-0003,35.192081,-89.79259,11/18/1999
24434,Melrose Park,Warehouse,8400 W NORTH AVE,US,MW,IL,Illinois,MELROSE PARK,60160-1607,(708) 397-2905,41.90837,-87.83499,11/17/2010
24435,North Riverside IL,Warehouse,2500 SOUTH HARLEM AVE,US,MW,IL,Illinois,NORTH RIVERSIDE,60546-1415,(708) 853-1017,41.844613,-87.807113,11/25/2013
24436,Mettawa,Warehouse,25901 RIVERWOODS RD,US,MW,IL,Illinois,METTAWA,60045-3403,(847) 235-1302,42.23641,-87.90391,11/20/2010
24437,Pewaukee,Warehouse,443 PEWAUKEE RD,US,MW,WI,Wisconsin,PEWAUKEE,53072-5886,(262) 956-6700,43.089757,-88.230383,10/27/2011
24438,Duluth,Warehouse,4611 W ARROWHEAD RD.,US,MW,MN,Minnesota,DULUTH,55811,(218) 600-5978,46.8233388,-92.1731843,10/28/2021
24439,Bedford Park Bus Ctr,Warehouse,7300 S CICERO AVE,US,BD,IL,Illinois,CHICAGO,60629-5817,(708) 552-9010,41.76014,-87.74174,4/13/2015
24440,Glenview,Warehouse,2900 PATRIOT BLVD,US,MW,IL,Illinois,GLENVIEW,60026-8046,(847) 730-1003,42.10668,-87.82247,10/17/2002
24441,Niles,Warehouse,7311 N MELVINA AVE,US,MW,IL,Illinois,NILES,60714-3905,(847) 972-3003,42.012081,-87.781808,6/1/2000
24442,New Berlin,Warehouse,15300 WEST GRANGE AVE,US,MW,WI,Wisconsin,NEW BERLIN,53151-7909,(262) 599-7030,42.945088,-88.105872,11/6/2015
24443,SE Memphis,Warehouse,3775 HACKS CROSS RD,US,SE,TN,Tennessee,MEMPHIS,38125-2302,(901) 214-0054,35.04596,-89.79595,11/18/1999
24444,Pleasant Prairie,Warehouse,7707 94TH AVE,US,MW,WI,Wisconsin,PLEASANT PRAIRIE,53158-1955,(262) 597-1027,42.564492,-87.921497,6/12/2015
24445,Chicago South Loop,Warehouse,1430 S ASHLAND AVE,US,MW,IL,Illinois,CHICAGO,60608-2040,(312) 492-3609,41.862588,-87.666296,6/28/2012
24446,Lincoln Park,Warehouse,2746 N CLYBOURN AVE,US,MW,IL,Illinois,CHICAGO,60614-1006,(773) 360-2053,41.931087,-87.676734,5/2/2001
24447,Menomonee Falls,Warehouse,W162N9235 PERSHING AVE,US,MW,WI,Wisconsin,MENOMONEE FALLS,53051-4026,(262) 946-6060,43.183364,-88.112357,11/5/2015
24448,Merrillville,Warehouse,1310 E 79TH AVE,US,MW,IN,Indiana,MERRILLVILLE,46410-5768,(219) 641-6400,41.473777,-87.321652,10/24/2001
24449,Grafton,Warehouse,950 PORT WASHINGTON RD,US,MW,WI,Wisconsin,GRAFTON,53024-9201,(262) 204-1050,43.31051,-87.924991,8/30/2007
24450,Grand Chute,Warehouse,5401 W. INTEGRITY WAY,US,MW,WI,Wisconsin,GRAND CHUTE,54913-8602,(920) 815-4500,44.270614,-88.487826,11/7/2015
24451,Evansville,Warehouse,1201 CROSS POINTE PL,US,MW,IN,Indiana,EVANSVILLE,47715-9168,(812) 909-6572,37.988621,-87.463817,6/28/2019
24452,Bellevue (Green Bay),Warehouse,2355 COSTCO WAY,US,MW,WI,Wisconsin,BELLEVUE,54311-9206,(920) 469-5700,44.458414,-87.98932,10/17/2013
24453,Cedar Park TX,Warehouse,4601 183A TOLL RD,US,TE,TX,Texas,CEDAR PARK,78613-6310,(512) 690-9059,30.527962,-97.817368,11/22/2013
24454,Avon IN,Warehouse,8816 DR. CHARLES NELSON DRIVE,US,MW,IN,Indiana,AVON,46123,(317) 286-4742,39.76470636,-86.36369775,10/29/2021
24455,Pflugerville,Warehouse,1901 KELLY LN,US,TE,TX,Texas,PFLUGERVILLE,78660-5976,(737) 888-6037,30.47021,-97.58988,7/26/2018
24456,Fortune Park,Warehouse,9010 MICHIGAN RD,US,MW,IN,Indiana,INDIANAPOLIS,46268-3184,(317) 532-1608,39.916011,-86.224994,10/3/2002
24457,Billings,Warehouse,2290 KING AVE W,US,NW,MT,Montana,BILLINGS,59102-7415,(406) 652-8765,45.755016,-108.568754,12/5/1991
24458,Austin,Warehouse,10401 RESEARCH BLVD,US,TE,TX,Texas,AUSTIN,78759-5712,(512) 634-2253,30.396036,-97.745815,8/30/2001
24459,Mishawaka,Warehouse,625 E UNIVERSITY DR,US,MW,IN,Indiana,GRANGER,46530-7381,(574) 401-7004,41.720402,-86.173155,11/14/2014
24460,S Indianapolis,Warehouse,4628 E COUNTY LINE RD,US,MW,IN,Indiana,INDIANAPOLIS,46237-9105,(317) 360-7076,39.636234,-86.08947,6/23/2016
24461,Castleton,Warehouse,6110 E 86TH ST,US,MW,IN,Indiana,INDIANAPOLIS,46250-3507,(317) 558-1453,39.914227,-86.061607,10/3/2002
24462,S Austin,Warehouse,4301 W WILLIAM CANNON DR BLDG A STE 100,US,TE,TX,Texas,AUSTIN,78749-1499,(512) 382-3013,30.221984,-97.83853,6/1/2006
24463,W Nashville,Warehouse,6670 CHARLOTTE PIKE,US,SE,TN,Tennessee,NASHVILLE,37209-4202,(615) 354-5100,36.139,-86.884,11/14/2006
24464,Woodlands,Warehouse,8185 HIGHWAY 242,US,TE,TX,Texas,CONROE,77385-4365,(936) 703-2295,30.20803,-95.452502,11/21/2014
24465,Kalamazoo,Warehouse,5100 CENTURY AVE,US,MW,MI,Michigan,KALAMAZOO,49006-5714,(269) 743-2298,42.270955,-85.648153,11/12/2014
24466,Brentwood,Warehouse,98 SEABOARD LN,US,SE,TN,Tennessee,BRENTWOOD,37027-2930,(615) 493-1003,35.963141,-86.819009,8/27/1999
24467,Ridgeland,Warehouse,700 HIGHLAND COLONY PKWY,US,SE,MS,Mississippi,RIDGELAND,39157,(601) 499-8581,32.422668,-90.146947,3/12/2020
24469,Wyoming,Warehouse,4901 WILSON AVE SW,US,MW,MI,Michigan,WYOMING,49418-8788,(616) 406-2651,42.875941,-85.762641,6/16/2005
24470,Spanish Fork,Warehouse,273 E 1000 N,US,NW,UT,Utah,SPANISH FORK,84660-5844,(801) 504-9530,40.122679,-111.648991,10/25/2012
24471,Orem,Warehouse,648 E 800 S,US,NW,UT,Utah,OREM,84097-6528,(801) 851-5003,40.282279,-111.679701,11/23/1999
24472,Louisville,Warehouse,3408 BARDSTOWN RD,US,MW,KY,Kentucky,LOUISVILLE,40218-4608,(502) 912-9869,38.20496,-85.66621,8/27/2016
24475,Cypress TX,Warehouse,26960 NW FREEWAY,US,TE,TX,Texas,CYPRESS,77433-4934,(832) 653-4576,29.977881,-95.711488,7/19/2019
24476,NE Louisville,Warehouse,5020 NORTON HEALTHCARE BLVD,US,MW,KY,Kentucky,LOUISVILLE,40241-2835,(502) 420-0160,38.31501,-85.57357,10/26/2006
24477,Humble,Warehouse,21802 TOWNSEN BLVD W.,US,TE,TX,Texas,HUMBLE,77338-1594,(281) 707-7051,30.02249,-95.267803,3/18/2016
24478,Willowbrook,Warehouse,12405 N GESSNER RD,US,TE,TX,Texas,HOUSTON,77064-1170,(832) 912-2353,29.95352,-95.546778,6/7/2001
24479,Lehi,Warehouse,198 N 1200 E,US,NW,UT,Utah,LEHI,84043-2294,(801) 653-2700,40.389774,-111.82683,8/24/2006
24480,Grand Rapids,Warehouse,5100 28TH ST SE,US,MW,MI,Michigan,GRAND RAPIDS,49512-2049,(616) 233-4401,42.912709,-85.544536,12/9/2004
24481,Sonterra Park,Warehouse,1201 N LOOP 1604 E,US,TE,TX,Texas,SAN ANTONIO,78232-1322,(210) 403-4703,29.610691,-98.475696,7/11/2002
24482,Murray,Warehouse,5201 S INTERMOUNTAIN DR,US,NW,UT,Utah,MURRAY,84107-6024,(801) 290-4200,40.658248,-111.890708,1/12/1984
24483,Sandy,Warehouse,11100 S AUTO MALL DR,US,NW,UT,Utah,SANDY,84070-4171,(801) 790-0003,40.55135,-111.89396,6/2/2000
24484,Bountiful,Warehouse,573 W 100 N,US,NW,UT,Utah,WEST BOUNTIFUL,84010-7018,(801) 299-3940,40.890468,-111.892665,11/22/2005
24485,Salt Lake City,Warehouse,1818 S 300 W,US,NW,UT,Utah,SALT LAKE CITY,84115-1805,(801) 485-9715,40.730914,-111.89972,12/2/1995
24486,Fort Wayne,Warehouse,5110 VALUE DR,US,MW,IN,Indiana,FORT WAYNE,46808-4048,(260) 481-1100,41.125035,-85.155717,10/16/2013
24487,West Valley,Warehouse,3747 S 2700 W,US,NW,UT,Utah,SALT LAKE CITY,84119-3721,(801) 996-9008,40.689735,-111.9112,8/3/2007
24488,Saratoga Springs,Warehouse,1083 N REDWOOD RD.,US,NW,UT,Utah,SARATOGA SPRINGS,84045,(801) 407-4194,40.382286,-111.918153,8/13/2020
24489,NW San Antonio,Warehouse,5611 UTSA BLVD,US,TE,TX,Texas,SAN ANTONIO,78249-1619,(210) 200-2050,29.575153,-98.596255,11/3/2001
24490,Selma,Warehouse,15330 IH-35 NORTH,US,TE,TX,Texas,SELMA,78154-3814,(210) 332-1072,29.5760192,-98.317466,10/17/2007
24491,El Paso,Warehouse,6101 GATEWAY BLVD W SUITE #1,US,TE,TX,Texas,EL PASO,79925-3416,(915) 774-5203,31.78185,-106.41118,11/13/2003
24492,South Jordan,Warehouse,3571 W 10400 S,US,NW,UT,Utah,SOUTH JORDAN,84095-7173,(801) 523-5287,40.559958,-111.975383,8/28/2014
24493,W Katy,Warehouse,23645 KATY FREEWAY,US,TE,TX,Texas,KATY,77494-7221,(281) 347-9900,29.784185,-95.787284,2/6/2014
24494,South Ogden,Warehouse,3656 WALL AVE,US,NW,UT,Utah,OGDEN,84405-7101,(801) 317-3953,41.196896,-111.979432,11/18/2003
24495,Bunker Hill,Warehouse,1150 BUNKER HILL RD,US,TE,TX,Texas,HOUSTON,77055-6208,(713) 576-2053,29.7875,-95.5296,6/7/2001
24496,Murfreesboro,Warehouse,1524 BEASIE RD,US,SE,TN,Tennessee,MURFREESBORO,37128,(615) 439-2639,35.82625543,-86.41739894,7/20/2021
24497,W San Antonio,Warehouse,191 W LOOP 1604 S,US,TE,TX,Texas,SAN ANTONIO,78245-4191,(210) 868-6725,29.4318251,-98.71546982,9/23/2021
24498,Galleria,Warehouse,3836 RICHMOND AVE,US,TE,TX,Texas,HOUSTON,77027-5802,(832) 325-5850,29.732819,-95.438941,10/22/2008
24499,Stafford Bus Ctr,Warehouse,12717 NETWORK DR,US,BD,TX,Texas,STAFFORD,77477,(346) 309-3871,29.638677,-95.57751,10/20/2021
24500,Sugar Land,Warehouse,17520 SOUTHWEST FWY,US,TE,TX,Texas,SUGAR LAND,77479-2359,(281) 566-6720,29.585567,-95.641551,7/11/2013
24501,Pearland,Warehouse,3500 BUSINESS CENTER DRIVE,US,TE,TX,Texas,PEARLAND,77584-1952,(281) 707-7001,29.544815,-95.390649,11/12/2015
24502,Webster,Warehouse,1310 JASMINE AVE,US,TE,TX,Texas,WEBSTER,77598,(281) 707-7750,29.534451,-95.136838,10/19/2018
24503,Idaho Falls,Warehouse,2495 E. LINCOLN ROAD,US,NW,ID,Idaho,IDAHO FALLS,83401,(986) 497-3149,43.511564,-111.984289,8/14/2020
24504,Florence,Warehouse,800 HEIGHTS BLVD,US,MW,KY,Kentucky,FLORENCE,41042-1415,(859) 568-7000,38.98771,-84.64699,11/11/2015
24505,Traverse City,Warehouse,125 E SOUTH AIRPORT RD,US,MW,MI,Michigan,TRAVERSE CITY,49686-4864,(231) 252-7000,44.735546,-85.570036,10/26/2017
24506,Huntsville,Warehouse,1205 N. MEMORIAL PKWY,US,SE,AL,Alabama,HUNTSVILLE,35801-5930,(256) 519-2220,34.742422,-86.601066,11/2/2000
24507,Springdale,Warehouse,1100 E KEMPER RD,US,MW,OH,Ohio,SPRINGDALE,45246-3321,(513) 346-7943,39.28639,-84.45158,12/6/2000
24508,Pocatello,Warehouse,305 W QUINN RD,US,NW,ID,Idaho,POCATELLO,83201-4988,(208) 238-4040,42.905853,-112.455124,10/23/2008
24509,Bozeman,Warehouse,2505 CATRON ST,US,NW,MT,Montana,BOZEMAN,59718-7993,(406) 585-0383,45.713402,-111.070516,8/28/1997
24510,East Lansing,Warehouse,2540 E SAGINAW HIGHWAY,US,MW,MI,Michigan,EAST LANSING,48823-9719,(517) 903-5000,42.75213,-84.4475,10/27/2017
24511,Deerfield,Warehouse,9691 WATERSTONE BLVD,US,MW,OH,Ohio,CINCINNATI,45249-8220,(513) 774-0024,39.29672,-84.301719,2/16/2000
24512,Lafayette,Warehouse,201 MEADOW FARM RD,US,TE,LA,Louisiana,LAFAYETTE,70508-7277,(337) 541-7025,30.155903,-92.042704,3/17/2016
24513,Centerville,Warehouse,5300 CORNERSTONE NORTH BLVD,US,MW,OH,Ohio,CENTERVILLE,45440-2268,(937) 640-6000,39.6607561,-84.1085705,11/13/2014
24514,Lexington,Warehouse,1500 FITZGERALD CT,US,MW,KY,Kentucky,LEXINGTON,40509-8307,(859) 245-3620,38.025174,-84.40741,10/18/2013
24515,Baton Rouge,Warehouse,10000 DAWNADELE AVE BLDG A,US,TE,LA,Louisiana,BATON ROUGE,70809-2591,(225) 295-4600,30.419945,-91.07271,4/25/2014
24516,Midland,Warehouse,4816 BAY CITY RD,US,MW,MI,Michigan,MIDLAND,48642,(989) 488-1553,43.6042107,-84.1692328,11/12/2020
24517,Hoover,Warehouse,3650 GALLERIA CIR,US,SE,AL,Alabama,HOOVER,35244-2346,(205) 909-1039,33.379079,-86.811453,11/20/2003
24518,Pittsfield Township,Warehouse,771 AIRPORT BLVD,US,MW,MI,Michigan,ANN ARBOR,48108-3601,(734) 213-8010,42.231821,-83.740916,6/29/2012
24519,Perrysburg,Warehouse,26400 DIXIE HWY,US,MW,OH,Ohio,PERRYSBURG,43551-1967,(567) 368-6000,41.534849,-83.635551,6/11/2015
24521,Green Oak Township,Warehouse,6700 WHITMORE LAKE RD,US,MW,MI,Michigan,BRIGHTON,48116-2160,(810) 220-8950,42.504493,-83.759392,12/8/2004
24522,Toledo,Warehouse,3405 W CENTRAL AVE,US,MW,OH,Ohio,TOLEDO,43606-1402,(419) 381-5000,41.677306,-83.627642,8/29/2007
24523,Fort Oglethorpe,Warehouse,100 COBB PKWY,US,SE,GA,Georgia,RINGGOLD,30736-8566,(706) 891-2579,34.96726,-85.19344,10/27/2010
24524,Haggerty,Warehouse,20000 HAGGERTY RD,US,MW,MI,Michigan,LIVONIA,48152-1011,(734) 464-6399,42.41806,-83.43273,5/1/1998
24525,Commerce Township,Warehouse,3000 COMMERCE XING,US,MW,MI,Michigan,COMMERCE TOWNSHIP,48390-3082,(248) 529-2300,42.53498,-83.44539,9/25/2003
24526,Middlebelt,Warehouse,13700 MIDDLEBELT RD,US,MW,MI,Michigan,LIVONIA,48150-2215,(734) 427-0563,42.382444,-83.333641,5/1/1998
24527,NW Columbus,Warehouse,7300 STATE ROUTE 161 E,US,MW,OH,Ohio,PLAIN CITY,43064-9276,(614) 733-5002,40.109677,-83.189049,8/11/2016
24528,Bloomfield,Warehouse,2343 S TELEGRAPH RD,US,MW,MI,Michigan,BLOOMFIELD,48302-0254,(248) 836-1603,42.605136,-83.294351,5/1/1998
24529,Auburn Hills,Warehouse,400 BROWN RD,US,MW,MI,Michigan,AUBURN HILLS,48326-1305,(248) 648-0003,42.707355,-83.296195,11/22/2000
24530,Madison Heights,Warehouse,30550 STEPHENSON HWY,US,MW,MI,Michigan,MADISON HEIGHTS,48071-1611,(248) 616-0048,42.516885,-83.119088,5/1/1998
24531,Columbus,Warehouse,1500 GEMINI PL,US,MW,OH,Ohio,COLUMBUS,43240-7002,(614) 987-1900,40.14842,-82.97776,11/29/2006
24532,Helena,Warehouse,2195 E CUSTER AVE,US,NW,MT,Montana,HELENA,59602-1217,(406) 495-7042,46.616667,-112.005798,11/28/2006
24533,Easton OH,Warehouse,3888 STELZER RD,US,MW,OH,Ohio,COLUMBUS,43219-3044,(614) 934-6211,40.051511,-82.908857,10/4/2013
24535,Lakeside,Warehouse,45460 MARKET ST,US,MW,MI,Michigan,SHELBY TOWNSHIP,48315-6224,(586) 580-2000,42.628894,-82.980793,10/17/2001
24536,Farragut,Warehouse,10745 KINGSTON PIKE,US,SE,TN,Tennessee,KNOXVILLE,37934-3002,(865) 218-7700,35.896339,-84.141262,11/9/2012
24537,Roseville MI,Warehouse,27118 GRATIOT AVE,US,MW,MI,Michigan,ROSEVILLE,48066-2915,(586) 447-0191,42.495856,-82.937296,5/1/1998
24538,New Orleans,Warehouse,3900 DUBLIN ST,US,TE,LA,Louisiana,NEW ORLEANS,70118-4754,(504) 484-5220,29.96749,-90.11015,9/21/2013
24539,St George,Warehouse,835 N 3050 E,US,SD,UT,Utah,SAINT GEORGE,84790-9041,(435) 256-0003,37.125261,-113.521711,11/15/2000
24540,Prescott,Warehouse,3911 E STATE ROUTE 69,US,SD,AZ,Arizona,PRESCOTT,86301-6717,(928) 541-2203,34.548006,-112.396774,6/27/1996
24541,Twin Falls,Warehouse,731 POLE LINE RD,US,NW,ID,Idaho,TWIN FALLS,83301-3036,(208) 736-1550,42.5929619,-114.4641176,7/20/1993
24542,Mesa,Warehouse,1444 S SOSSAMAN RD,US,SD,AZ,Arizona,MESA,85209-3400,(480) 333-6552,33.392191,-111.667523,10/27/1994
24543,Scottsdale,Warehouse,15255 N HAYDEN RD,US,SD,AZ,Arizona,SCOTTSDALE,85260-2507,(480) 948-5040,33.624136,-111.901912,7/6/1987
24544,Cave Creek,Warehouse,2450 E BEARDSLEY RD,US,SD,AZ,Arizona,PHOENIX,85050-1300,(480) 375-2850,33.66957,-112.02916,11/11/2005
24545,Paradise Valley,Warehouse,4570 E CACTUS RD,US,SD,AZ,Arizona,PHOENIX,85032-7702,(480) 308-7044,33.599661,-111.983217,9/18/2009
24546,SE Gilbert,Warehouse,2887 S MARKET ST,US,SD,AZ,Arizona,GILBERT,85295-1303,(480) 366-3950,33.297538,-111.747827,5/4/2006
24547,Montgomery,Warehouse,8251 EASTCHASE PKWY,US,SE,AL,Alabama,MONTGOMERY,36117-7033,(334) 270-7452,32.363886,-86.15088,10/4/2007
24548,Gilbert,Warehouse,1415 N ARIZONA AVE,US,SD,AZ,Arizona,GILBERT,85233-1616,(480) 293-0053,33.375409,-111.842325,11/1/1979
24549,Dallas GA,Warehouse,1715 CHARLES HARDY PKWY,US,SE,GA,Georgia,DALLAS,30157,(404) 806-4595,33.9204932,-84.7614352,3/11/2021
24550,Mobile,Warehouse,1450 TINGLE CIRCLE WEST,US,SE,AL,Alabama,MOBILE,36606-2632,(251) 308-7030,30.647386,-88.119292,6/4/2015
24551,N Phoenix,Warehouse,19001 N 27TH AVE,US,SD,AZ,Arizona,PHOENIX,85027-5036,(623) 293-4400,33.659357,-112.115464,6/22/2000
24552,Tucson,Warehouse,6255 EAST GRANT ROAD,US,SD,AZ,Arizona,TUCSON,85712-5834,(520) 886-6377,32.2519,-110.859,5/1/1982
24553,Thomas Road,Warehouse,4502 E OAK ST,US,SD,AZ,Arizona,PHOENIX,85008-2411,(602) 808-0101,33.47292,-111.98484,12/1/1994
24554,Woodstock,Warehouse,113 LINCOLN ST,US,SE,GA,Georgia,WOODSTOCK,30188-7800,(770) 694-7193,34.119874,-84.5157021,8/9/2018
24555,Chandler,Warehouse,595 S GALLERIA WAY,US,SD,AZ,Arizona,CHANDLER,85226-4932,(480) 375-2051,33.294814,-111.898568,12/1/2005
24556,Tempe,Warehouse,1445 W ELLIOT RD,US,SD,AZ,Arizona,TEMPE,85284-1103,(480) 496-6651,33.349027,-111.958687,11/1/1989
24557,Town Center,Warehouse,645 BARRETT PARKWAY NW,US,SE,GA,Georgia,KENNESAW,30144-4922,(770) 794-1767,34.00476,-84.569131,9/13/1997
24558,NW Tucson,Warehouse,3901 W COSTCO DR,US,SD,AZ,Arizona,TUCSON,85741-2864,(520) 797-1980,32.327402,-111.048018,4/1/1989
24559,Glendale,Warehouse,17550 N 79TH AVE,US,SD,AZ,Arizona,GLENDALE,85308-8711,(623) 776-4003,33.643778,-112.230948,8/1/1988
24560,Phoenix Bus Ctr,Warehouse,3801 N 33RD AVE,US,BD,AZ,Arizona,PHOENIX,85017-4508,(480) 293-2123,33.491791,-112.12838,11/20/2001
24561,Avon OH,Warehouse,35804 DETROIT ROAD,US,MW,OH,Ohio,AVON,44011-1681,(440) 930-0103,41.458475,-82.015908,12/10/2002
24562,SW Tucson,Warehouse,1650 E TUCSON MARKETPLACE BLVD,US,SD,AZ,Arizona,TUCSON,85713-6561,(520) 791-7340,32.181912,-110.946742,4/14/2011
24563,Cumberland Mall,Warehouse,2900 CUMBERLAND MALL SE,US,SE,GA,Georgia,ATLANTA,30339-8107,(770) 431-1700,33.88075,-84.47206,11/15/2006
24564,Avondale,Warehouse,10000 W MCDOWELL RD,US,SD,AZ,Arizona,AVONDALE,85392-4803,(623) 907-5663,33.464736,-112.275458,10/11/2002
24565,Alpharetta,Warehouse,2855 JORDAN CT,US,SE,GA,Georgia,ALPHARETTA,30004-3869,(678) 823-4950,34.090796,-84.277026,6/4/2005
24566,Surprise,Warehouse,16385 W. WADDELL RD.,US,SD,AZ,Arizona,SURPRISE,85388,(602) 325-1799,33.610013,-112.41034,11/1/1978
24567,Strongsville,Warehouse,16690 ROYALTON RD,US,MW,OH,Ohio,STRONGSVILLE,44136-4433,(440) 783-3415,41.313032,-81.816754,11/18/2009
24568,Perimeter,Warehouse,6350 PEACHTREE DUNWOODY RD,US,SE,GA,Georgia,ATLANTA,30328-4527,(770) 352-8660,33.928124,-84.35192,11/13/1996
24569,Cumming,Warehouse,1211 BALD RIDGE MARINA RD,US,SE,GA,Georgia,CUMMING,30041-8484,(470) 239-6610,34.2122,-84.116293,8/29/2014
24570,Brookhaven,Warehouse,500 BROOKHAVEN AVE NE,US,SE,GA,Georgia,ATLANTA,30319-3291,(404) 460-1915,33.87185,-84.33537,10/28/2010
24571,Sharpsburg,Warehouse,40 FISCHER CROSSINGS DR,US,SE,GA,Georgia,SHARPSBURG,30277,(678) 621-8594,33.400461,-84.621576,8/22/2019
24572,Gwinnett,Warehouse,3980 VENTURE DR,US,SE,GA,Georgia,DULUTH,30096-5077,(770) 622-1330,33.94909,-84.143252,11/13/1996
24573,Mall Of Georgia,Warehouse,1550 MALL OF GEORGIA BLVD,US,SE,GA,Georgia,BUFORD,30519-6551,(678) 288-3009,34.061632,-83.995033,5/3/2006
24574,Morrow Bus Ctr,Warehouse,1700 MOUNT ZION RD,US,BD,GA,Georgia,MORROW,30260-3014,(678) 201-0003,33.57221,-84.332962,9/4/2012
24575,Boston Heights,Warehouse,6720 BASS PRO DR,US,MW,OH,Ohio,BOSTON HEIGHTS,44236-1198,(330) 341-7000,41.2632,-81.51267,6/22/2016
24576,Mayfield Heights,Warehouse,1409 GOLDEN GATE BLVD,US,MW,OH,Ohio,CLEVELAND,44124-1808,(440) 544-1350,41.5247,-81.447,10/22/2002
24577,Missoula,Warehouse,3220 N RESERVE ST,US,NW,MT,Montana,MISSOULA,59808-1556,(406) 543-6445,46.894787,-114.03928,11/27/1991
24582,Henderson,Warehouse,791 MARKS ST,US,SD,NV,Nevada,HENDERSON,89014-8601,(702) 352-2000,36.069,-115.0373,11/15/1991
24584,Centennial,Warehouse,6555 N. DECATUR BLVD,US,SD,NV,Nevada,LAS VEGAS,89131-2796,(702) 415-2300,36.2783,-115.2093,10/27/2005
24585,Las Vegas Bus Ctr,Warehouse,222 S MARTIN L KING BLVD,US,BD,NV,Nevada,LAS VEGAS,89106-4305,(702) 384-6247,36.171958,-115.16267,2/19/2009
24586,SW Henderson,Warehouse,3411 SAINT ROSE PKWY,US,SD,NV,Nevada,HENDERSON,89052-4570,(702) 803-7044,35.987559,-115.138791,11/8/2018
24587,Pharr,Warehouse,1501 W KELLY AVE,US,TE,TX,Texas,PHARR,78577-5031,(956) 354-3900,26.193844,-98.198963,3/15/2012
24588,Summerlin,Warehouse,801 S PAVILION CENTER DR,US,SD,NV,Nevada,LAS VEGAS,89144-4566,(702) 352-2053,36.1626,-115.333,10/4/2001
24589,Boise,Warehouse,2051 S COLE RD,US,NW,ID,Idaho,BOISE,83709-2815,(208) 321-8700,43.584761,-116.27414,10/11/1988
24590,Greenville,Warehouse,1021 WOODRUFF RD,US,SE,SC,South Carolina,GREENVILLE,29607-4108,(864) 297-2560,34.835851,-82.312891,8/16/2007
24592,Meridian,Warehouse,3403 W. CHINDEN BLVD,US,NW,ID,Idaho,MERIDIAN,83646,(986) 200-4136,43.6610822,-116.4362837,10/30/2020
24593,Nampa,Warehouse,16700 N MARKET PLACE BLVD,US,NW,ID,Idaho,NAMPA,83687-7909,(208) 465-3800,43.61421,-116.591892,8/23/2006
24595,Spartanburg,Warehouse,211 W BLACKSTOCK RD,US,SE,SC,South Carolina,SPARTANBURG,29301-1382,(864) 515-4942,34.940102,-81.997852,8/15/2007
24596,Robinson,Warehouse,202 COSTCO DR,US,NE,PA,Pennsylvania,PITTSBURGH,15205-4858,(412) 490-2204,40.458051,-80.16722,7/9/2002
24597,Cranberry Township,Warehouse,1050 CRANBERRY SQUARE DR,US,NE,PA,Pennsylvania,CRANBERRY TOWNSHIP,16066-6142,(724) 778-6300,40.6916558,-80.1096754,11/28/2001
24600,Kalispell,Warehouse,2330 US HIGHWAY 93 N,US,NW,MT,Montana,KALISPELL,59901-2547,(406) 758-2500,48.23532,-114.33055,12/3/1993
24601,Homestead,Warehouse,501 WATERFRONT DR W,US,NE,PA,Pennsylvania,HOMESTEAD,15120-5009,(412) 205-1000,40.403942,-79.92017,3/8/2007
24610,Mooresville,Warehouse,392 TALBERT RD,US,SE,NC,North Carolina,MOORESVILLE,28117,(980) 447-9749,35.582241,-80.852102,6/26/2019
24612,Augusta,Warehouse,825 CABELA DR,US,SE,GA,Georgia,AUGUSTA,30909-8202,(706) 739-1700,33.523611,-82.020329,11/16/2011
24617,Charlotte,Warehouse,500 TYVOLA RD,US,SE,NC,North Carolina,CHARLOTTE,28217-3504,(704) 501-2403,35.161881,-80.884567,6/21/2001
24623,Winston Salem,Warehouse,1085 HANES MALL BLVD,US,SE,NC,North Carolina,WINSTON SALEM,27103-1310,(336) 970-2300,36.0649,-80.3184,9/28/2001
24629,Matthews,Warehouse,2125 MATTHEWS TOWNSHIP PKWY,US,SE,NC,North Carolina,MATTHEWS,28105-5766,(704) 321-7440,35.127071,-80.703649,11/29/2001
24630,Tallahassee,Warehouse,4067 LAGNIAPPE WAY,US,SE,FL,Florida,TALLAHASSEE,32317-1201,(850) 219-2500,30.461111,-84.212508,4/9/2008
24631,Clarkston,Warehouse,301 5TH ST,US,NW,WA,Washington,CLARKSTON,99403-1860,(509) 758-1800,46.42297,-117.04445,7/29/1993
24632,Columbia SC,Warehouse,507 PINEY GROVE RD,US,SE,SC,South Carolina,COLUMBIA,29210-3405,(803) 875-7130,34.06848,-81.13864,8/10/2016
24634,Greensboro,Warehouse,4201 W WENDOVER AVE,US,SE,NC,North Carolina,GREENSBORO,27407-1908,(336) 291-4010,36.058,-79.884,11/21/2003
24636,Harrisonburg,Warehouse,1830 RESERVOIR ST,US,NE,VA,Virginia,HARRISONBURG,22801-8742,(540) 432-8989,38.428084,-78.855443,5/4/1995
24637,Coeur D' Alene,Warehouse,355 E NEIDER AVE,US,NW,ID,Idaho,COEUR D' ALENE,83815-3723,(208) 676-7351,47.707993,-116.781828,4/22/2004
24639,El Centro,Warehouse,2030 N IMPERIAL AVE,US,SD,CA,California,EL CENTRO,92243-1323,(760) 353-2380,32.812089,-115.57,5/14/1992
24640,La Quinta,Warehouse,79795 HIGHWAY 111,US,LA,CA,California,LA QUINTA,92253-4756,(760) 775-0363,33.70727,-116.272325,11/22/2006
24641,Palm Desert,Warehouse,72800 DINAH SHORE DR,US,LA,CA,California,PALM DESERT,92211-0817,(760) 770-2810,33.801928,-116.390717,3/9/1991
24647,Spokane,Warehouse,5601 E SPRAGUE AVE,US,NW,WA,Washington,SPOKANE,99212-0826,(509) 842-0003,47.657134,-117.332791,12/1/1983
24648,Charlottesville,Warehouse,3171 DISTRICT AVE,US,NE,VA,Virginia,CHARLOTTESVILLE,22901-2784,(434) 328-7023,38.067361,-78.489271,7/30/2015
24650,Winchester,Warehouse,251 FRONT ROYAL PIKE,US,NE,VA,Virginia,WINCHESTER,22602-7319,(540) 722-9626,39.157591,-78.158969,5/23/1995
24651,N Spokane,Warehouse,12020 N NEWPORT HWY,US,NW,WA,Washington,SPOKANE,99218-1655,(509) 466-9668,47.766885,-117.385353,10/16/1992
24653,Victorville,Warehouse,14555 VALLEY CENTER DR,US,LA,CA,California,VICTORVILLE,92395-4216,(760) 524-9904,34.515375,-117.319773,10/13/1988
24654,Durham,Warehouse,1510 N POINTE DR,US,SE,NC,North Carolina,DURHAM,27705-3405,(919) 220-2770,36.027504,-78.914197,11/30/2000
24655,Pooler,Warehouse,200 MOSAIC CIRCLE,US,SE,GA,Georgia,POOLER,31322,(912) 348-4569,32.0806428,-81.27739327,11/18/2021
24656,Rochester NY,Warehouse,335 WESTFALL ROAD,US,NE,NY,New York,ROCHESTER,14620-4603,(585) 471-6906,43.113911,-77.613645,6/5/2015
24657,San Bernardino,Warehouse,1099 E HOSPITALITY LN,US,LA,CA,California,SAN BERNARDINO,92408-2836,(909) 478-3445,34.0689,-117.2613,6/22/1989
24658,Apex,Warehouse,1021 PINE PLAZA DR,US,SE,NC,North Carolina,APEX,27523-6406,(919) 331-6027,35.746682,-78.827298,3/16/2016
24659,Moreno Valley,Warehouse,12700 DAY ST,US,LA,CA,California,MORENO VALLEY,92553-7531,(951) 697-8900,33.938333,-117.278735,9/1/1992
24660,Fontana,Warehouse,16505 SIERRA LAKES PKWY,US,LA,CA,California,FONTANA,92336-1256,(909) 770-5639,34.138639,-117.44383,11/17/2006
24661,Garner,Warehouse,7800 FAYETTEVILLE RD.,US,SE,NC,North Carolina,RALEIGH,27603,(984) 810-5030,35.66786929,-78.6988198,11/17/2021
24662,Leesburg,Warehouse,1300 EDWARDS FERRY RD NE,US,NE,VA,Virginia,LEESBURG,20176-3355,(703) 669-5061,39.1152,-77.5334,7/28/2004
24663,Temecula,Warehouse,26610 YNEZ RD,US,SD,CA,California,TEMECULA,92591-4697,(951) 719-2000,33.519961,-117.156391,11/26/1991
24664,Raleigh,Warehouse,2838 WAKE FOREST RD,US,SE,NC,North Carolina,RALEIGH,27609-7840,(919) 755-2801,35.818,-78.6225,10/25/2006
24665,Rancho Cucamonga,Warehouse,11800 4TH ST,US,LA,CA,California,RANCHO CUCAMONGA,91730-6129,(909) 581-1703,34.07731,-117.546884,10/1/1992
24666,Frederick,Warehouse,10 MONOCACY BLVD,US,NE,MD,Maryland,FREDERICK,21704-7256,(301) 644-1483,39.402357,-77.410548,12/1/2001
24667,Lake Elsinore,Warehouse,29315 CENTRAL AVE,US,SD,CA,California,LAKE ELSINORE,92532-2212,(951) 253-6030,33.694823,-117.334428,5/5/2006
24669,Ontario Bus Ctr,Warehouse,3680 E GUASTI RD,US,BD,CA,California,ONTARIO,91761,(909) 789-1221,34.064182,-117.573234,8/6/2020
24670,Manassas,Warehouse,10701 SUDLEY MANOR DR,US,NE,VA,Virginia,MANASSAS,20109-2845,(703) 368-7579,38.787114,-77.515497,6/27/1992
24671,Eastvale,Warehouse,5030 HAMNER AVE,US,LA,CA,California,EASTVALE,91752-1009,(951) 749-7182,33.98629,-117.558314,6/28/2018
24672,Corona,Warehouse,480 N MCKINLEY ST,US,LA,CA,California,CORONA,92879-1291,(951) 279-1190,33.890275,-117.521217,11/1/1988
24673,Chantilly,Warehouse,14390 CHANTILLY CROSSING LN,US,NE,VA,Virginia,CHANTILLY,20151-2117,(703) 885-5544,38.897556,-77.444961,10/9/2003
24674,Sparks,Warehouse,4810 GALLERIA PKWY,US,BA,NV,Nevada,SPARKS,89436-9605,(775) 356-4400,39.579389,-119.740429,8/25/2006
24675,Sterling,Warehouse,21398 PRICE CASCADES PLZ,US,NE,VA,Virginia,STERLING,20164-6606,(703) 406-6500,39.023131,-77.404245,11/17/1990
24676,Montclair,Warehouse,9404 CENTRAL AVE,US,LA,CA,California,MONTCLAIR,91763-2421,(909) 575-5004,34.08311,-117.689645,12/11/2001
24677,Reno,Warehouse,2200 HARVARD WAY,US,BA,NV,Nevada,RENO,89502-4000,(775) 689-2200,39.506822,-119.7858,11/8/1988
24678,San Marcos,Warehouse,725 CENTER DRIVE,US,SD,CA,California,SAN MARCOS,92069-3536,(760) 871-6867,33.13661,-117.124461,7/8/2011
24679,Fredericksburg,Warehouse,3102 PLANK RD # 600,US,NE,VA,Virginia,FREDERICKSBURG,22407-4954,(540) 785-1160,38.294831,-77.516509,7/10/2002
24680,Fairfax,Warehouse,4725 W OX RD,US,NE,VA,Virginia,FAIRFAX,22030-6125,(703) 332-3200,38.850776,-77.372753,11/28/1986
24681,Kennewick,Warehouse,8505 W. GAGE BLVD,US,NW,WA,Washington,KENNEWICK,99336-8120,(509) 737-8861,46.2262,-119.2354,7/1/1987
24682,Poway,Warehouse,12155 TECH CENTER DR,US,SD,CA,California,POWAY,92064-7156,(858) 848-2451,32.937108,-117.03646,7/23/2004
24683,Carson City,Warehouse,700 OLD CLEAR CREEK RD,US,BA,NV,Nevada,CARSON CITY,89705-6853,(775) 881-2503,39.115779,-119.776127,11/10/2000
24684,Carmel Mountain,Warehouse,12350 CARMEL MOUNTAIN RD,US,SD,CA,California,SAN DIEGO,92128-4697,(858) 675-0379,32.987689,-117.075568,10/23/1992
24685,San Marcos Bus Ctr,Warehouse,150 S. BENT AVE,US,BD,CA,California,SAN MARCOS,92078,(760) 410-5681,33.13715063,-117.1835274,3/17/2022
24686,Chino Hills,Warehouse,13111 PEYTON DR,US,LA,CA,California,CHINO HILLS,91709-6002,(909) 464-2900,34.014402,-117.744959,11/1/1985
24687,Santee,Warehouse,101 TOWN CENTER PKWY,US,SD,CA,California,SANTEE,92071-5899,(619) 562-3227,32.841359,-116.988627,9/1/1979
24688,San Dimas,Warehouse,520 N LONE HILL AVE,US,LA,CA,California,SAN DIMAS,91773-1725,(909) 962-5507,34.112315,-117.828851,5/16/2008
24689,Lancaster CA,Warehouse,1141 W AVENUE L,US,LA,CA,California,LANCASTER,93534-7077,(661) 802-4470,34.66037,-118.149186,9/29/1988
24690,Gaithersburg,Warehouse,880 RUSSELL AVE,US,NE,MD,Maryland,GAITHERSBURG,20879-3506,(301) 417-1500,39.157055,-77.212713,7/28/1990
24691,Vista,Warehouse,1755 HACIENDA DR,US,SD,CA,California,VISTA,92081-4546,(760) 631-7255,33.187249,-117.276272,11/24/1993
24692,Charleston,Warehouse,3050 ASHLEY TOWN CENTER DR,US,SE,SC,South Carolina,CHARLESTON,29414-5664,(843) 460-2003,32.794859,-80.036849,4/18/2001
24693,Potomac Mills,Warehouse,2700 POTOMAC MILLS CIRCLE,US,NE,VA,Virginia,WOODBRIDGE,22192-4653,(703) 490-7410,38.6451,-77.299599,5/5/2007
24694,La Mesa,Warehouse,8125 FLETCHER PKWY,US,SD,CA,California,LA MESA,91942-2934,(619) 667-8504,32.775438,-117.022153,11/19/1992
24695,Yorba Linda,Warehouse,22633 SAVI RANCH PKWY,US,LA,CA,California,YORBA LINDA,92887-4664,(714) 282-6650,33.874883,-117.743343,11/1/1991
24696,Chesterfield,Warehouse,1401 MALL DR,US,NE,VA,Virginia,NORTH CHESTERFIELD,23235-4887,(804) 464-9110,37.511214,-77.60683,11/3/1990
24697,W Henrico,Warehouse,9650 W BROAD ST,US,NE,VA,Virginia,GLEN ALLEN,23060-4115,(804) 727-3050,37.641183,-77.559916,11/23/1991
24698,Azusa,Warehouse,1220 W FOOTHILL BLVD,US,LA,CA,California,AZUSA,91702-2819,(626) 812-7911,34.13356,-117.925593,10/1/1983
24699,Carlsbad,Warehouse,951 PALOMAR AIRPORT RD,US,SD,CA,California,CARLSBAD,92011-1110,(760) 929-0963,33.121947,-117.316953,10/3/1992
24700,Newington,Warehouse,7373 BOSTON BLVD,US,NE,VA,Virginia,SPRINGFIELD,22153-2805,(703) 912-1203,38.739323,-77.199818,11/7/1992
24701,Rancho Del Rey,Warehouse,895 E H ST,US,SD,CA,California,CHULA VISTA,91910-7807,(619) 656-0826,32.635959,-117.025197,1/13/1994
24702,San Diego Bus Ctr,Warehouse,7803 OTHELLO AVE,US,BD,CA,California,SAN DIEGO,92111-3709,(858) 810-5833,32.81625,-117.153656,9/15/2010
24703,Mission Valley,Warehouse,2345 FENTON PKWY,US,SD,CA,California,SAN DIEGO,92108-4743,(619) 358-4000,32.780234,-117.130218,6/29/2000
24704,City Of Industry,Warehouse,17550 CASTLETON ST,US,LA,CA,California,CITY OF INDUSTRY,91748-1701,(626) 839-3053,33.995125,-117.921253,12/19/1986
24705,Laguna Niguel,Warehouse,27972 CABOT RD,US,LA,CA,California,LAGUNA NIGUEL,92677-1211,(949) 364-0217,33.5556,-117.6768,3/1/1990
24706,Irvine,Warehouse,115 TECHNOLOGY DR,US,LA,CA,California,IRVINE,92618-2408,(949) 453-0435,33.66098,-117.743556,11/14/1992
24707,SE San Diego,Warehouse,650 GATEWAY CENTER DR,US,SD,CA,California,SAN DIEGO,92102-4530,(619) 358-2303,32.712361,-117.114195,11/22/1999
24708,Tustin Ranch,Warehouse,2655 EL CAMINO REAL,US,LA,CA,California,TUSTIN,92782-8918,(714) 838-7895,33.726883,-117.796482,10/1/1992
24709,Wheaton,Warehouse,11160 VEIRS MILL RD,US,NE,MD,Maryland,WHEATON,20902-2538,(301) 692-1330,39.035686,-77.055739,4/10/2013
24710,Mt Pleasant,Warehouse,3525 PARK AVENUE BLVD,US,SE,SC,South Carolina,MOUNT PLEASANT,29466-7242,(843) 375-7021,32.880299,-79.794407,8/8/2018
24711,Laguna Marketplace,Warehouse,27220 HEATHER RIDGE RD,US,LA,CA,California,LAGUNA NIGUEL,92677-3418,(949) 389-8703,33.568405,-117.712114,6/6/2002
24712,Morena,Warehouse,4605 MORENA BLVD,US,SD,CA,California,SAN DIEGO,92117-3650,(858) 270-6920,32.821913,-117.224561,7/1/1976
24713,Chula Vista,Warehouse,1130 BROADWAY,US,SD,CA,California,CHULA VISTA,91911-2707,(619) 205-1501,32.608877,-117.080901,10/1/1981
24714,Mt Vernon,Warehouse,7940 RICHMOND HWY,US,NE,VA,Virginia,ALEXANDRIA,22306-7826,(571) 458-3500,38.74157,-77.08621,8/8/2013
24715,Harrisburg,Warehouse,5125 JONESTOWN RD STE 221,US,NE,PA,Pennsylvania,HARRISBURG,17112-2983,(717) 412-2050,40.312579,-76.800151,8/28/2001
24716,San Juan Capistrano,Warehouse,33961 DOHENY PARK RD,US,LA,CA,California,SAN JUAN CAPISTRANO,92675-4836,(949) 240-3558,33.46942,-117.67562,12/4/1987
24717,Pentagon City,Warehouse,1200 S FERN ST,US,NE,VA,Virginia,ARLINGTON,22202-2862,(703) 413-2324,38.86176,-77.05656,7/6/1987
24718,Tustin,Warehouse,2700 PARK AVE,US,LA,CA,California,TUSTIN,92782-2708,(714) 338-1933,33.6994,-117.8239,6/7/2007
24719,Fullerton,Warehouse,900 S HARBOR BLVD,US,LA,CA,California,FULLERTON,92832-3098,(714) 738-7521,33.86264,-117.92428,11/1/1984
24720,La Habra,Warehouse,101 N BEACH BLVD,US,LA,CA,California,LA HABRA,90631-4468,(562) 524-0001,33.9329,-117.9701,10/26/2005
24721,Garden Grove,Warehouse,11000 GARDEN GROVE BLVD,US,LA,CA,California,GARDEN GROVE,92843-1206,(714) 638-6308,33.77405,-117.94099,6/25/1987
24722,Monterey Park,Warehouse,2000 MARKET PLACE DR,US,LA,CA,California,MONTEREY PARK,91755-7402,(323) 890-1904,34.036951,-118.103676,11/6/1993
24723,Alhambra,Warehouse,2207 W COMMONWEALTH AVE,US,LA,CA,California,ALHAMBRA,91803-1302,(626) 289-7164,34.08785,-118.148068,8/24/1987
24724,Washington DC,Warehouse,2441 MARKET ST NE,US,NE,DC,District of Columbia,WASHINGTON,20018-3840,(202) 269-8540,38.920362,-76.950368,11/29/2012
24725,Fountain Valley,Warehouse,17900 NEWHOPE ST,US,LA,CA,California,FOUNTAIN VALLEY,92708-5404,(714) 338-2183,33.70371,-117.93452,8/15/1983
24726,Beltsville,Warehouse,10925 BALTIMORE AVE,US,NE,MD,Maryland,BELTSVILLE,20705-2117,(301) 902-2640,39.033006,-76.910084,6/2/1990
24727,Westminster Bus Ctr,Warehouse,13225 BEACH BLVD,US,BD,CA,California,WESTMINSTER,92683-9210,(657) 400-7006,33.767764,-117.990641,12/21/2015
24728,Commerce Bus Ctr,Warehouse,6333 TELEGRAPH RD,US,BD,CA,California,COMMERCE,90040-2513,(323) 767-2640,33.994744,-118.143159,7/23/2009
24729,Norwalk CA,Warehouse,12324 HOXIE AVE,US,LA,CA,California,NORWALK,90650-2266,(562) 929-0826,33.922098,-118.103701,4/18/1983
24730,Visalia,Warehouse,1405 W CAMERON AVE,US,BA,CA,California,VISALIA,93277-9527,(559) 735-2400,36.294152,-119.305673,11/20/1990
24731,Cypress CA,Warehouse,5401 KATELLA AVE,US,LA,CA,California,CYPRESS,90720-2809,(562) 668-5150,33.80306,-118.03864,7/14/2005
24732,Huntington Beach,Warehouse,7562 CENTER AVE,US,LA,CA,California,HUNTINGTON BEACH,92647-3002,(714) 372-7510,33.73397,-117.99645,5/2/2012
24733,Owings Mills,Warehouse,10270 MILL RUN CIRCLE,US,NE,MD,Maryland,OWINGS MILLS,21117,(443) 501-7043,39.4042173,-76.7894242,10/18/2018
24734,W Jacksonville,Warehouse,8000 PARRAMORE RD,US,SE,FL,Florida,JACKSONVILLE,32244-5704,(904) 479-7521,30.202373,-81.756201,2/8/2018
24735,Los Feliz,Warehouse,2901 LOS FELIZ BLVD,US,LA,CA,California,LOS ANGELES,90039-1502,(323) 644-5201,34.12645,-118.26287,11/15/1996
24736,Columbia MD,Warehouse,6675 MARIE CURIE DR,US,NE,MD,Maryland,ELKRIDGE,21075-6457,(410) 423-4052,39.186713,-76.795161,10/5/2007
24737,Woodmore Towne Centre,Warehouse,2400 FIVE LEES LN,US,NE,MD,Maryland,GLENARDEN,20706-1617,(301) 341-6742,38.92234,-76.85096,10/26/2010
24738,Burbank,Warehouse,1051 W BURBANK BLVD,US,LA,CA,California,BURBANK,91506-1421,(818) 557-3783,34.183815,-118.323158,11/1/1984
24739,Santa Clarita,Warehouse,18649 VIA PRINCESSA,US,LA,CA,California,SANTA CLARITA,91387-4935,(661) 250-2818,34.403266,-118.4605,5/1/1992
24740,Lakewood,Warehouse,340 LAKEWOOD CENTER MALL,US,LA,CA,California,LAKEWOOD,90712-2409,(562) 295-1508,33.85045,-118.141779,2/26/2009
24741,Brandywine,Warehouse,16006 CRAIN HWY,US,NE,MD,Maryland,BRANDYWINE,20613-8081,(301) 372-3200,38.66888,-76.87602,11/12/2008
24742,Burbank Bus Ctr,Warehouse,11428 SHERMAN WAY,US,BD,CA,California,NORTH HOLLYWOOD,91605-5807,(818) 423-7082,34.201185,-118.380211,8/9/2017
24743,Pacoima,Warehouse,13550 PAXTON ST,US,LA,CA,California,PACOIMA,91331-2352,(818) 272-2700,34.27248,-118.42784,3/4/2010
24744,Arundel Mills,Warehouse,7077 ARUNDEL MILLS CIR,US,NE,MD,Maryland,HANOVER,21076-1387,(410) 379-3100,39.154633,-76.729999,12/1/2001
24745,Signal Hill,Warehouse,2200 E WILLOW ST,US,LA,CA,California,SIGNAL HILL,90755-2132,(562) 427-2537,33.80436,-118.16547,11/1/1986
24746,Bakersfield,Warehouse,3800 ROSEDALE HWY,US,LA,CA,California,BAKERSFIELD,93308-6235,(661) 852-2643,35.383357,-119.046601,10/3/1985
24747,Myrtle Beach,Warehouse,1021 OAK FOREST LN,US,SE,SC,South Carolina,MYRTLE BEACH,29577-9795,(843) 839-6604,33.706,-78.9158,3/18/2004
24748,E Jacksonville,Warehouse,4901 GATE PKWY,US,SE,FL,Florida,JACKSONVILLE,32246-4405,(904) 997-7003,30.251534,-81.535932,11/29/2000
24750,Clovis,Warehouse,2270 CLOVIS AVE,US,BA,CA,California,CLOVIS,93612,(559) 291-3377,36.806053,-119.700918,11/19/1990
24751,Van Nuys,Warehouse,6100 SEPULVEDA BLVD,US,LA,CA,California,VAN NUYS,91411-2503,(818) 989-5132,34.1818,-118.4643,11/9/1989
24752,SW Bakersfield,Warehouse,4900 PANAMA LN,US,LA,CA,California,BAKERSFIELD,93313-3479,(661) 398-4740,35.2959,-119.05669,4/26/2006
24753,Inglewood,Warehouse,3560 W CENTURY BLVD,US,LA,CA,California,INGLEWOOD,90303-1201,(310) 242-2777,33.945467,-118.334508,7/8/1985
24754,Hawthorne Bus Ctr,Warehouse,12530 PRAIRIE AVE,US,BD,CA,California,HAWTHORNE,90250-4638,(310) 220-8826,33.918617,-118.342575,3/20/2009
24755,Glen Burnie,Warehouse,575 E ORDNANCE RD,US,NE,MD,Maryland,GLEN BURNIE,21060-6575,(410) 590-8603,39.196883,-76.596885,11/15/1985
24756,Northridge,Warehouse,8810 TAMPA AVE,US,LA,CA,California,NORTHRIDGE,91324-3519,(818) 775-1860,34.230137,-118.553546,9/23/1989
24757,N Fresno,Warehouse,7100 N ABBY ST,US,BA,CA,California,FRESNO,93720-2920,(559) 437-3643,36.84222,-119.78875,11/26/2002
24758,Hawthorne,Warehouse,14501 HINDRY AVENUE,US,LA,CA,California,HAWTHORNE,90250-6748,(310) 727-0403,33.899,-118.3729,12/5/2000
24760,Torrance,Warehouse,2640 LOMITA BLVD,US,LA,CA,California,TORRANCE,90505-5214,(310) 891-1020,33.807559,-118.331744,9/24/1998
24761,Hanford,Warehouse,2395 E LACEY BLVD,US,BA,CA,California,HANFORD,93230-4740,(559) 670-6008,36.3259849,-119.6069726,10/27/2016
24762,Culver City,Warehouse,13463 WASHINGTON BLVD,US,LA,CA,California,MARINA DEL REY,90292-5658,(310) 754-2003,33.991127,-118.446494,6/24/1999
24763,Syracuse,Warehouse,120 TOWNSHIP BLVD,US,NE,NY,New York,CAMILLUS,13031-1659,(315) 883-2361,43.056663,-76.269757,10/24/2014
24764,Woodland Hills,Warehouse,21800 VICTORY BLVD,US,LA,CA,California,WOODLAND HILLS,91367-2227,(818) 884-9099,34.187371,-118.603486,12/18/1986
24765,White Marsh,Warehouse,9919 PULASKI HWY,US,NE,MD,Maryland,BALTIMORE,21220-1423,(410) 574-7563,39.359175,-76.447262,3/12/1988
24766,Fresno,Warehouse,4500 W SHAW AVE,US,BA,CA,California,FRESNO,93722-6200,(559) 271-6511,36.8092,-119.8736,9/12/1985
24769,Lancaster PA,Warehouse,1875 HEMPSTEAD RD,US,NE,PA,Pennsylvania,LANCASTER,17601-5671,(717) 396-8460,40.051512,-76.256401,5/24/1996
24770,Simi Valley,Warehouse,2660 PARK CENTER DR,US,LA,CA,California,SIMI VALLEY,93065-6207,(805) 578-3301,34.282956,-118.79738,5/1/1996
24773,Westlake Village,Warehouse,5700 LINDERO CANYON RD,US,LA,CA,California,WESTLAKE VILLAGE,91362-4063,(818) 597-3901,34.1527,-118.797152,8/8/1996
24777,Union Gap,Warehouse,2310 LONGFIBRE RD,US,NW,WA,Washington,UNION GAP,98903-1513,(509) 454-5242,46.565163,-120.496166,11/14/1990
24778,Merced,Warehouse,1445 R ST,US,BA,CA,California,MERCED,95340-5850,(209) 725-5020,37.301896,-120.494021,12/2/1993
24779,Oxnard,Warehouse,2001 E VENTURA BLVD,US,LA,CA,California,OXNARD,93036-1813,(805) 983-4200,34.2237,-119.15018,11/18/1985
24780,Wilmington,Warehouse,5351 GINGERWOOD DR,US,SE,NC,North Carolina,WILMINGTON,28405-3091,(910) 798-3250,34.247273,-77.873289,7/28/2006
24781,Bend,Warehouse,2500 NE HIGHWAY 20,US,NW,OR,Oregon,BEND,97701-6277,(541) 385-9640,44.05495,-121.269666,8/17/1993
24782,Wenatchee,Warehouse,375 HIGHLINE DR,US,NW,WA,Washington,EAST WENATCHEE,98802-5344,(509) 886-0593,47.401881,-120.28174,6/23/1995
24783,Newport News,Warehouse,12121 JEFFERSON AVE,US,NE,VA,Virginia,NEWPORT NEWS,23602-6916,(757) 746-2003,37.106494,-76.495036,9/17/1988
24785,Folsom,Warehouse,1800 CAVITT DR,US,BA,CA,California,FOLSOM,95630-6235,(916) 850-1000,38.64604,-121.11105,5/23/2003
24786,Allentown,Warehouse,791 N KROCKS RD,US,NE,PA,Pennsylvania,ALLENTOWN,18106-9046,(484) 273-7056,40.566948,-75.5581262,11/18/2016
24787,Sanatoga,Warehouse,14 W LIGHTCAP RD,US,NE,PA,Pennsylvania,POTTSTOWN,19464-3413,(610) 569-4137,40.238733,-75.575648,8/17/2011
24788,Christiana,Warehouse,900 CENTER BLVD,US,NE,DE,Delaware,NEWARK,19702-3221,(302) 894-0511,39.675369,-75.649492,10/1/1998
24790,Turlock,Warehouse,2955 N TEGNER RD,US,BA,CA,California,TURLOCK,95380-9401,(209) 656-5301,37.520322,-120.887638,8/26/2004
24791,Roseville CA,Warehouse,6750 STANFORD RANCH RD,US,BA,CA,California,ROSEVILLE,95678-1907,(916) 789-1485,38.7818,-121.26572,11/10/1995
24793,Concordville,Warehouse,700 EVERGREEN DR,US,NE,PA,Pennsylvania,GLEN MILLS,19342-2102,(610) 387-2205,39.88263,-75.53044,11/10/2012
24794,Rancho Cordova,Warehouse,11260 WHITE ROCK RD,US,BA,CA,California,RANCHO CORDOVA,95742-6571,(916) 724-2240,38.589992,-121.263768,6/23/1990
24795,Citrus Heights,Warehouse,7000 AUBURN BLVD,US,BA,CA,California,CITRUS HEIGHTS,95621-4342,(916) 560-4003,38.692449,-121.296761,12/13/2003
24797,Clearwater,Warehouse,2655 GULF TO BAY BLVD,US,SE,FL,Florida,CLEARWATER,33759-4936,(727) 373-1951,27.960478,-82.728188,5/15/2003
24798,Modesto,Warehouse,3801 PELANDALE AVE,US,BA,CA,California,MODESTO,95356-8300,(209) 342-4903,37.70012,-121.06609,8/10/1989
24799,W Tampa,Warehouse,8712 W LINEBAUGH AVE,US,SE,FL,Florida,TAMPA,33625-3713,(813) 616-7001,28.04428,-82.58091,2/9/2017
24800,Wesley Chapel,Warehouse,2225 GRAND CYPRESS DR,US,SE,FL,Florida,LUTZ,33559-6797,(813) 279-7031,28.190995,-82.393039,2/8/2017
24801,King Of Prussia,Warehouse,201 ALLENDALE RD,US,NE,PA,Pennsylvania,KING OF PRUSSIA,19406-1634,(610) 337-6601,40.09105,-75.38449,10/11/1997
24804,Sacramento Bus Ctr,Warehouse,3360 EL CAMINO AVE,US,BD,CA,California,SACRAMENTO,95821-6308,(916) 426-4556,38.607497,-121.386672,6/4/2020
24805,Norfolk,Warehouse,850 GLENROCK RD,US,NE,VA,Virginia,NORFOLK,23502-3702,(757) 459-4471,36.851621,-76.20056,11/19/1984
24806,Lodi,Warehouse,2680 REYNOLDS RANCH PKWY,US,BA,CA,California,LODI,95240-6848,(209) 366-7300,38.099813,-121.266331,6/9/2011
24807,Sacramento,Warehouse,7981 E STOCKTON BLVD,US,BA,CA,California,SACRAMENTO,95823-9606,(916) 682-3569,38.467519,-121.415378,12/1/1982
24808,Stockton,Warehouse,1616 E HAMMER LN,US,BA,CA,California,STOCKTON,95210-4119,(209) 478-2040,38.020832,-121.292427,10/23/1986
24809,Cal Expo (Sacramento),Warehouse,1600 EXPO PKWY,US,BA,CA,California,SACRAMENTO,95815-4228,(916) 830-1078,38.5975,-121.4525,8/6/1984
24810,Elk Grove,Warehouse,7400 ELK GROVE BLVD,US,BA,CA,California,ELK GROVE,95757-6299,(916) 465-6050,38.4087315,-121.4095122,9/27/2018
24811,Montgomeryville,Warehouse,740 UPPER STATE RD,US,NE,PA,Pennsylvania,NORTH WALES,19454-1403,(215) 353-4153,40.23772,-75.23743,7/10/1999
24812,Manteca,Warehouse,2440 DANIELS ST,US,BA,CA,California,MANTECA,95337-6745,(209) 825-8200,37.786333,-121.256003,8/14/2008
24813,Goleta,Warehouse,7095 MARKET PLACE DR,US,LA,CA,California,GOLETA,93117-5905,(805) 685-3199,34.42802,-119.87348,11/24/1998
24815,Chico,Warehouse,2100 DR MLK JR PKWY,US,BA,CA,California,CHICO,95928-4422,(530) 332-1742,39.723047,-121.810109,10/15/1991
24816,Bucks County,Warehouse,100 VETERANS WAY,US,NE,PA,Pennsylvania,WARMINSTER,18974-3533,(215) 347-1950,40.196806,-75.08091,10/21/2011
24817,Brandon,Warehouse,10921 CAUSEWAY BLVD,US,SE,FL,Florida,BRANDON,33511-1997,(813) 952-0103,27.922973,-82.33153,11/28/2000
24818,Woodland,Warehouse,2299 BRONZE STAR DR,US,BA,CA,California,WOODLAND,95776-5409,(530) 406-2120,38.673269,-121.723721,2/22/2008
24819,Tracy,Warehouse,3250 W GRANT LINE RD,US,BA,CA,California,TRACY,95304-8427,(209) 830-5340,37.75405,-121.475661,9/17/2002
24820,Altamonte Springs,Warehouse,741 ORANGE AVE,US,SE,FL,Florida,ALTAMONTE SPRINGS,32714-3031,(407) 786-7802,28.66183,-81.41494,6/20/1985
24821,Cherry Hill,Warehouse,650 GARDEN PARK BLVD,US,NE,NJ,New Jersey,CHERRY HILL,08002-4250,(856) 406-7430,39.92369,-75.04084,10/21/2020
24822,Santa Maria,Warehouse,1700 S. BRADLEY RD.,US,LA,CA,California,SANTA MARIA,93454-8001,(805) 928-8459,34.924557,-120.419403,11/22/1988
24823,Flemington,Warehouse,2A WALTER E FORAN BLVD N,US,NE,NJ,New Jersey,FLEMINGTON,08822-1613,(908) 905-7210,40.5220021,-74.8525651,11/17/2016
24824,Mt Laurel,Warehouse,100 CENTERTON RD,US,NE,NJ,New Jersey,MOUNT LAUREL,08054-6103,(856) 359-3650,39.971254,-74.91201,3/3/2005
24825,S Orlando,Warehouse,4696 GARDENS PARK BLVD,US,SE,FL,Florida,ORLANDO,32839-2171,(407) 586-7221,28.496131,-81.4257567,9/18/1986
24826,E Orlando,Warehouse,3333 UNIVERSITY BLVD,US,SE,FL,Florida,WINTER PARK,32792-7428,(407) 681-2119,28.597438,-81.301466,12/8/1999
24827,San Luis Obispo,Warehouse,1540 FROOM RANCH WAY,US,LA,CA,California,SAN LUIS OBISPO,93405-7211,(805) 541-7000,35.25182,-120.688876,9/17/2005
24828,Bradenton,Warehouse,805 LIGHTHOUSE DRIVE,US,SE,FL,Florida,BRADENTON,34212,(941) 213-0747,27.4959,-82.4713,8/21/2019
24829,Orlando Bus Ctr,Warehouse,2101 WATERBRIDGE BLVD,US,BD,FL,Florida,ORLANDO,32837-9283,(407) 586-7271,28.4034,-81.4069,8/26/2016
24830,Redding,Warehouse,1300 DANA DR,US,BA,CA,California,REDDING,96003-4071,(530) 222-0199,40.58575,-122.34735,4/5/1990
24831,Antioch,Warehouse,2201 VERNE ROBERTS CIR,US,BA,CA,California,ANTIOCH,94509-7911,(925) 757-7130,38.00997,-121.832833,8/29/1991
24832,Princeton,Warehouse,4100 QUAKERBRIDGE RD,US,NE,NJ,New Jersey,LAWRENCE TOWNSHIP,08648-4702,(609) 779-7000,40.28094,-74.67184,8/25/2016
24833,Gilroy,Warehouse,7251 CAMINO ARROYO,US,BA,CA,California,GILROY,95020-7340,(408) 848-0700,37.008691,-121.554466,3/1/2003
24834,Vacaville,Warehouse,1051 HUME WAY,US,BA,CA,California,VACAVILLE,95687-5558,(707) 453-7343,38.350395,-121.98133,12/6/2002
24835,Wharton,Warehouse,315 STATE ROUTE 15 N,US,NE,NJ,New Jersey,WHARTON,07885-1222,(973) 659-2000,40.906521,-74.570598,11/9/1993
24836,Livermore,Warehouse,2800 INDEPENDENCE DR,US,BA,CA,California,LIVERMORE,94551-7628,(925) 443-6306,37.7023,-121.81067,11/17/1993
24837,Bridgewater,Warehouse,325 PROMENADE BLVD,US,NE,NJ,New Jersey,BRIDGEWATER,08807-3457,(732) 584-1003,40.564051,-74.555669,8/24/1999
24838,Sarasota Mall,Warehouse,8201 S TAMIAMI TRL UNIT 501,US,SE,FL,Florida,SARASOTA,34238-2966,(941) 554-2800,27.23332,-82.49758,8/17/2012
24839,North Brunswick,Warehouse,100 GRAND AVENUE,US,NE,NJ,New Jersey,NORTH BRUNSWICK,08902-5026,(732) 509-3905,40.436314,-74.507129,7/24/2014
24840,Great Oaks,Warehouse,6898 RALEIGH ROAD,US,BA,CA,California,SAN JOSE,95119-1730,(408) 908-7929,37.243844,-121.785206,6/29/2017
24841,San Jose Bus Ctr,Warehouse,2376 S EVERGREEN LOOP,US,BD,CA,California,SAN JOSE,95122,(669) 236-4679,37.3178543,-121.8109559,10/29/2020
24842,North Plainfield,Warehouse,1290 US HIGHWAY 22E,US,NE,NJ,New Jersey,NORTH PLAINFIELD,07060-3518,(908) 546-5666,40.611762,-74.460034,11/14/2013
24843,Danville,Warehouse,3150 FOSTORIA WAY,US,BA,CA,California,DANVILLE,94526-5553,(925) 277-0407,37.781597,-121.975034,3/16/1989
24844,Concord,Warehouse,2400 MONUMENT BLVD,US,BA,CA,California,CONCORD,94520-3105,(925) 566-4003,37.95949,-122.03451,12/10/1986
24845,San Jose,Warehouse,2201 SENTER RD,US,BA,CA,California,SAN JOSE,95112-2627,(408) 275-0199,37.31125,-121.85128,11/28/1986
24846,NE San Jose,Warehouse,1709 AUTOMATION PKWY,US,BA,CA,California,SAN JOSE,95131-1866,(408) 678-2150,37.38922,-121.88307,8/23/2007
24847,Fairfield,Warehouse,5101 BUSINESS CENTER DR,US,BA,CA,California,FAIRFIELD,94534-1624,(707) 864-3816,38.21655,-122.14443,10/1/1992
24848,East Hanover,Warehouse,156 SR-10 WEST,US,NE,NJ,New Jersey,EAST HANOVER,07936-2107,(973) 602-2000,40.811858,-74.3803836,10/25/1997
24849,Salinas,Warehouse,1339 N DAVIS RD,US,BA,CA,California,SALINAS,93907-1988,(831) 424-4242,36.703445,-121.666955,8/29/1997
24850,Almaden,Warehouse,5301 ALMADEN EXPY,US,BA,CA,California,SAN JOSE,95118-3603,(408) 723-0964,37.25427,-121.87582,6/1/1987
24851,Fremont,Warehouse,43621 PACIFIC COMMONS BLVD,US,BA,CA,California,FREMONT,94538-3809,(510) 897-1092,37.502499,-121.971421,5/26/1988
24852,Edison,Warehouse,205 VINEYARD RD,US,NE,NJ,New Jersey,EDISON,08817-4785,(732) 491-2023,40.528598,-74.377335,10/24/1987
24853,Santa Clara,Warehouse,1601 COLEMAN AVE,US,BA,CA,California,SANTA CLARA,95050-3100,(408) 567-9000,37.35771,-121.93725,12/6/1985
24854,E Vancouver WA,Warehouse,19610 SE 1ST ST,US,NW,WA,Washington,CAMAS,98607-7472,(360) 258-6221,45.622097,-122.473118,11/24/2010
24855,Vallejo,Warehouse,198 PLAZA DR,US,BA,CA,California,VALLEJO,94591-3702,(707) 553-6400,38.131561,-122.215251,12/7/1989
24856,Union,Warehouse,1055 HUDSON ST,US,NE,NJ,New Jersey,UNION,07083-6809,(908) 810-1458,40.693519,-74.290249,11/19/1998
24857,Sunnyvale,Warehouse,150 LAWRENCE STATION RD,US,BA,CA,California,SUNNYVALE,94086-5309,(408) 730-1892,37.372205,-121.995957,7/1/1986
24858,Portland,Warehouse,4849 NE 138TH AVE,US,NW,OR,Oregon,PORTLAND,97230-3401,(503) 252-2243,45.556339,-122.52113,10/27/1983
24859,Hayward Bus Ctr,Warehouse,22330 HATHAWAY AVE,US,BD,CA,California,HAYWARD,94541-4861,(510) 259-6600,37.667459,-122.102598,7/5/1992
24860,Hayward,Warehouse,28505 HESPERIAN BLVD,US,BA,CA,California,HAYWARD,94545-5008,(510) 921-3128,37.617136,-122.08834,11/24/2009
24861,Wayne,Warehouse,149 STATE ROUTE 23,US,NE,NJ,New Jersey,WAYNE,07470-6933,(973) 339-4006,40.890574,-74.249549,9/28/1991
24862,Central Point,Warehouse,3075 HAMRICK ROAD,US,NW,OR,Oregon,CENTRAL POINT,97502-2844,(541) 734-4227,42.374211,-122.887231,10/29/1991
24863,Marlboro,Warehouse,18 ROUTE 9 NORTH,US,NE,NJ,New Jersey,MORGANVILLE,07751-1526,(732) 617-4340,40.360854,-74.303594,7/6/2011
24864,Clackamas,Warehouse,13130 SE 84TH AVE,US,NW,OR,Oregon,CLACKAMAS,97015-9733,(503) 794-5500,45.42789,-122.57543,11/24/1986
24865,San Leandro,Warehouse,1900 DAVIS ST,US,BA,CA,California,SAN LEANDRO,94577-1209,(510) 562-6708,37.718203,-122.180726,5/21/1987
24866,Mountain View,Warehouse,1000 N RENGSTORFF AVE,US,BA,CA,California,MOUNTAIN VIEW,94043-1716,(650) 988-1841,37.41961,-122.09315,12/9/1992
24867,Vancouver WA,Warehouse,6720 NE 84TH ST,US,NW,WA,Washington,VANCOUVER,98665-2016,(360) 828-2262,45.683906,-122.603549,8/27/2004
24868,Sand City,Warehouse,801 TIOGA AVE,US,BA,CA,California,SAND CITY,93955-3050,(831) 899-1255,36.616711,-121.846725,11/16/1989
24869,Bonney Lake,Warehouse,9801 204TH AVE E,US,NW,WA,Washington,BONNEY LAKE,98391-6559,(253) 750-8120,47.165782,-122.1583972,5/30/2018
24870,Staten Island,Warehouse,2975 RICHMOND AVE,US,NE,NY,New York,STATEN ISLAND,10314-5851,(718) 982-9525,40.572622,-74.16985,12/15/1995
24871,Clifton,Warehouse,20 BRIDEWELL PL,US,NE,NJ,New Jersey,CLIFTON,07014-1724,(973) 779-8715,40.83058,-74.135926,7/1/1992
24872,Hazlet,Warehouse,2835 ROUTE 35 N,US,NE,NJ,New Jersey,HAZLET,07730-1516,(732) 335-3800,40.4199625,-74.1729754,12/7/1991
24873,Manahawkin,Warehouse,245 STAFFORD PARK BLVD,US,NE,NJ,New Jersey,STAFFORD TOWNSHIP,08050-2734,(609) 242-2011,39.70977,-74.287038,5/29/2008
24874,Richmond CA,Warehouse,4801 CENTRAL AVENUE,US,BA,CA,California,RICHMOND,94804-5878,(510) 898-2003,37.898,-122.3206,10/16/1986
24875,Covington,Warehouse,27520 COVINGTON WAY SE,US,NW,WA,Washington,COVINGTON,98042-9100,(253) 796-1004,47.35514,-122.120892,10/25/2008
24876,Issaquah,Warehouse,1801 10TH AVE NW,US,NW,WA,Washington,ISSAQUAH,98027-5384,(425) 313-0965,47.550811,-122.049851,9/9/1994
24877,Santa Cruz,Warehouse,220 SYLVANIA AVE,US,BA,CA,California,SANTA CRUZ,95060-2161,(831) 469-0961,36.985102,-122.03482,8/18/1994
24878,Bayonne,Warehouse,21 GOLDSBOROUGH DR,US,NE,NJ,New Jersey,BAYONNE,7002,(201) 354-2335,40.6731136,-74.1053398,3/7/2019
24879,Wilsonville,Warehouse,25900 SW HEATHER PL,US,NW,OR,Oregon,WILSONVILLE,97070-5785,(503) 825-4003,45.3332,-122.76613,7/24/2003
24880,Redwood City,Warehouse,2300 MIDDLEFIELD RD,US,BA,CA,California,REDWOOD CITY,94063-2854,(650) 568-4040,37.4801,-122.21705,6/1/1983
24881,Tigard,Warehouse,7850 SW DARTMOUTH ST,US,NW,OR,Oregon,TIGARD,97223-8401,(503) 639-0811,45.43634,-122.75622,11/3/1986
24882,Teterboro,Warehouse,2 TETERBORO LANDING DR,US,NE,NJ,New Jersey,TETERBORO,07608-1120,(201) 596-7001,40.861256,-74.063649,7/21/1994
24883,Nanuet,Warehouse,50 OVERLOOK BLVD,US,NE,NY,New York,NANUET,10954-5292,(845) 425-1469,41.107345,-74.025694,6/30/1992
24884,Foster City,Warehouse,1001 METRO CENTER BLVD,US,BA,CA,California,FOSTER CITY,94404-2177,(650) 286-0739,37.5608,-122.27472,8/4/1994
24885,Hackensack Bus Ctr,Warehouse,80 S RIVER ST,US,BD,NJ,New Jersey,HACKENSACK,07601-6954,(201) 296-3044,40.87709,-74.04119,3/15/2016
24886,Brick Township,Warehouse,465 ROUTE 70,US,NE,NJ,New Jersey,BRICK,08723-4049,(732) 262-6300,40.056498,-74.155128,11/21/1992
24887,Puyallup,Warehouse,1201 39TH AVE SW,US,NW,WA,Washington,PUYALLUP,98373-3803,(253) 445-7543,47.156,-122.3088,11/14/2000
24888,Eugene,Warehouse,2828 CHAD DR,US,NW,OR,Oregon,EUGENE,97408-7336,(541) 683-8126,44.09015,-123.068374,11/9/1989
24889,Brooklyn,Warehouse,976 3RD AVE,US,NE,NY,New York,BROOKLYN,11232-2400,(718) 965-7603,40.654786,-74.007424,11/21/1996
24890,San Francisco,Warehouse,450 10TH ST,US,BA,CA,California,SAN FRANCISCO,94103-4304,(415) 626-4388,37.77099,-122.41052,11/18/1993
24891,Aloha,Warehouse,15901 SW JENKINS RD,US,NW,OR,Oregon,ALOHA,97006-5045,(503) 644-7615,45.507745,-122.841423,10/29/1985
24892,Ocean Township,Warehouse,2361 STATE ROUTE 66,US,NE,NJ,New Jersey,OCEAN,07712-3961,(732) 481-0023,40.24335,-74.04891,3/20/2003
24893,Federal Way,Warehouse,35100 ENCHANTED PKWY S,US,NW,WA,Washington,FEDERAL WAY,98003-8314,(253) 874-3652,47.287153,-122.313542,3/9/1989
24894,Tukwila,Warehouse,400 COSTCO DR STE 150,US,NW,WA,Washington,TUKWILA,98188-4808,(206) 575-9191,47.44467,-122.25102,8/30/1984
24895,Redmond,Warehouse,7725 188TH AVE NE,US,NW,WA,Washington,REDMOND,98052-6088,(425) 406-5382,47.66664,-122.16378,11/11/2016
24896,S San Francisco Bus Ctr,Warehouse,900 DUBUQUE AVE,US,BD,CA,California,SOUTH SAN FRANCISCO,94080-1805,(650) 784-4047,37.66173,-122.40163,8/22/2017
24897,S San Francisco,Warehouse,451 S AIRPORT BLVD,US,BA,CA,California,SOUTH SAN FRANCISCO,94080-6909,(650) 872-2021,37.641412,-122.402563,5/18/1987
24898,Salem,Warehouse,4885 27TH AVE. SE,US,NW,OR,Oregon,SALEM,97306-6919,(503) 371-1729,44.88446702,-123.0052314,3/26/1992
24900,Kirkland,Warehouse,8629 120TH AVE NE,US,NW,WA,Washington,KIRKLAND,98033-5822,(425) 827-1693,47.6807426,-122.1827165,8/29/1985
24901,Novato,Warehouse,300 VINTAGE WAY,US,BA,CA,California,NOVATO,94945-5007,(415) 899-1332,38.086361,-122.551722,3/11/1992
24902,Woodinville,Warehouse,24008 SNOHOMISH WOODINVILLE RD,US,NW,WA,Washington,WOODINVILLE,98072-9743,(425) 806-7700,47.779256,-122.148548,8/26/2005
24903,Queens,Warehouse,3250 VERNON BLVD,US,NE,NY,New York,LONG ISLAND CITY,11106-4927,(718) 267-3680,40.767383,-73.937044,11/20/1996
24904,Manhattan,Warehouse,517 E 117TH ST,US,NE,NY,New York,NEW YORK,10035-4409,(212) 896-5875,40.795683,-73.932547,11/12/2009
24905,Fife Bus Ctr,Warehouse,3900 20TH ST E,US,BD,WA,Washington,FIFE,98424-1818,(253) 719-1950,47.239,-122.37509,11/12/2003
24906,Albany,Warehouse,3130 KILLDEER AVE SE,US,NW,OR,Oregon,ALBANY,97322-5359,(541) 918-7043,44.639158,-123.065235,10/12/2001
24907,El Camino,Warehouse,1600 EL CAMINO REAL,US,BA,CA,California,SOUTH SAN FRANCISCO,94080-1206,(650) 757-3003,37.66462,-122.44919,10/1/1987
24908,Melbourne,Warehouse,4305 PINEDA CAUSEWAY,US,SE,FL,Florida,MELBOURNE,32940,(321) 428-2910,28.18942,-80.719726,12/9/2021
24909,Hillsboro,Warehouse,1255 NE 48TH AVE,US,NW,OR,Oregon,HILLSBORO,97124-5008,(503) 681-2800,45.5355,-122.9347,11/17/2005
24910,Yonkers,Warehouse,20 STEW LEONARD DR,US,NE,NY,New York,YONKERS,10710-7204,(914) 595-1003,40.973382,-73.863277,10/29/1999
24911,Santa Rosa,Warehouse,1900 SANTA ROSA AVE,US,BA,CA,California,SANTA ROSA,95407-7636,(707) 578-3775,38.42007,-122.71229,11/11/1986
24912,Seattle,Warehouse,4401 4TH AVE S,US,NW,WA,Washington,SEATTLE,98134-2389,(206) 622-3136,47.564661,-122.32941,9/15/1983
24913,Rego Park,Warehouse,6135 JUNCTION BLVD,US,NE,NY,New York,REGO PARK,11374-2772,(718) 760-2180,40.7336,-73.863916,7/8/2010
24914,Tacoma,Warehouse,2219 S 37TH ST,US,NW,WA,Washington,TACOMA,98409-7473,(253) 475-5595,47.2248,-122.4672,5/24/1984
24916,Rohnert Park,Warehouse,5901 REDWOOD DR,US,BA,CA,California,ROHNERT PARK,94928-2076,(707) 540-9113,38.352139,-122.715381,9/18/2002
24917,Everett WA,Warehouse,10200 19TH AVE SE,US,NW,WA,Washington,EVERETT,98208-4256,(425) 379-7451,47.905142,-122.207003,11/1/1984
24918,Lynnwood,Warehouse,18109 33RD AVE W,US,NW,WA,Washington,LYNNWOOD,98037-4840,(425) 697-1062,47.83425,-122.27592,10/1/2015
24919,New Rochelle,Warehouse,1 INDUSTRIAL LN,US,NE,NY,New York,NEW ROCHELLE,10805-1203,(914) 235-2233,40.8984,-73.79402,6/3/1994
24920,Roseburg,Warehouse,4141 NE STEPHENS ST,US,NW,OR,Oregon,ROSEBURG,97470-1161,(541) 378-0020,43.259741,-123.351435,8/12/2010
24921,Lynnwood Bus Ctr,Warehouse,19105 HIGHWAY 99,US,BD,WA,Washington,LYNNWOOD,98036-5228,(425) 640-7700,47.825973,-122.310977,10/3/1996
24922,Aurora Village,Warehouse,1175 N 205TH ST,US,NW,WA,Washington,SHORELINE,98133-3206,(206) 546-0480,47.7757,-122.3442,6/30/1994
24923,Marysville,Warehouse,16616 TWIN LAKES AVE,US,NW,WA,Washington,MARYSVILLE,98271-4701,(360) 652-4532,48.14773,-122.18866,9/21/2006
24925,Lawrence,Warehouse,605 ROCKAWAY TPKE,US,NE,NY,New York,LAWRENCE,11559-1029,(516) 371-2017,40.631272,-73.738399,8/12/1993
24926,Port Chester,Warehouse,1 WESTCHESTER AVE,US,NE,NY,New York,PORT CHESTER,10573-4343,(914) 935-3103,41.00851,-73.69127,8/29/2002
24927,Gig Harbor,Warehouse,10990 HARBOR HILL DR NW,US,NW,WA,Washington,GIG HARBOR,98332-8945,(253) 853-8600,47.3573,-122.604444,11/2/2007
24928,Lacey,Warehouse,1470 MARVIN RD NE,US,NW,WA,Washington,LACEY,98516-3870,(360) 412-3500,47.060016,-122.760496,7/18/2006
24931,Oceanside,Warehouse,3705 HAMPTON RD,US,NE,NY,New York,OCEANSIDE,11572-4808,(516) 259-7002,40.61925,-73.652515,8/23/2017
24932,Westbury,Warehouse,1250 OLD COUNTRY RD,US,NE,NY,New York,WESTBURY,11590-5641,(516) 683-8300,40.743759,-73.597842,10/24/1992
24934,Ukiah,Warehouse,1275 AIRPORT PARK BLVD,US,BA,CA,California,UKIAH,95482-7400,(707) 313-8004,39.1272227,-123.1967938,7/19/2018
24935,Tumwater,Warehouse,5500 LITTLEROCK RD SW,US,NW,WA,Washington,TUMWATER,98512-7363,(360) 357-6580,46.997133,-122.91788,11/14/1991
24936,Silverdale,Warehouse,10000 MICKELBERRY RD NW,US,NW,WA,Washington,SILVERDALE,98383-8302,(360) 692-9213,47.654353,-122.682293,11/25/1986
24937,Burlington WA,Warehouse,1725 S BURLINGTON BLVD,US,NW,WA,Washington,BURLINGTON,98233-3223,(360) 757-5703,48.453687,-122.33793,8/3/2000
24938,Norwalk CT,Warehouse,779 CONNECTICUT AVENUE,US,NE,CT,Connecticut,NORWALK,06854-1615,(203) 822-2003,41.092,-73.452,5/9/2001
24940,Brookfield,Warehouse,200 FEDERAL RD,US,NE,CT,Connecticut,BROOKFIELD,06804-2527,(203) 740-7623,41.44289,-73.40487,11/21/1991
24941,Melville,Warehouse,625 BROADHOLLOW RD,US,NE,NY,New York,MELVILLE,11747-5007,(631) 293-8707,40.758929,-73.42204,9/16/1989
24947,Fort Myers,Warehouse,7171 CYPRESS LAKE DR,US,SE,FL,Florida,FORT MYERS,33907-6521,(239) 415-3806,26.546143,-81.87511,9/30/1999
24949,Commack,Warehouse,10 GARET PL,US,NE,NY,New York,COMMACK,11725-5421,(631) 462-3900,40.806569,-73.286901,8/25/1995
24951,Bellingham,Warehouse,4125 ARCTIC AVE,US,NW,WA,Washington,BELLINGHAM,98226-9325,(360) 671-6947,48.78952,-122.46177,11/13/1991
24954,Colchester,Warehouse,218 LOWER MOUNTAIN VIEW DR,US,NE,VT,Vermont,COLCHESTER,05446-5830,(802) 318-2000,44.505687,-73.17681,8/25/1993
24955,Estero,Warehouse,10088 GULF CENTER DR,US,SE,FL,Florida,FORT MYERS,33913-8961,(239) 433-7240,26.48857,-81.78635,4/12/2007
24956,Nesconset,Warehouse,3000 MIDDLE COUNTRY RD,US,NE,NY,New York,NESCONSET,11767-1072,(631) 366-1504,40.86209,-73.13349,7/13/1987
24957,Milford,Warehouse,1718 BOSTON POST RD,US,NE,CT,Connecticut,MILFORD,06460-2718,(203) 882-8881,41.248982,-73.023517,4/22/1993
24958,Waterbury,Warehouse,3600 E MAIN ST,US,NE,CT,Connecticut,WATERBURY,06705-3851,(203) 596-9967,41.543019,-72.971329,10/13/1993
24959,Holbrook,Warehouse,125 BEACON DR,US,NE,NY,New York,HOLBROOK,11741-4309,(631) 244-0292,40.776118,-73.05161,8/14/1993
24960,Sequim,Warehouse,955 W WASHINGTON ST,US,NW,WA,Washington,SEQUIM,98382-3266,(360) 406-2025,48.078717,-123.124851,9/9/1993
24962,Naples,Warehouse,6275 NAPLES BLVD,US,SE,FL,Florida,NAPLES,34109-2030,(239) 596-6404,26.219403,-81.772904,12/7/1999
24963,Warrenton,Warehouse,1804 SE ENSIGN LN,US,NW,OR,Oregon,WARRENTON,97146-7339,(503) 338-4103,46.145552,-123.915154,7/15/1993
24964,Eureka,Warehouse,1006 W WABASH AVE,US,BA,CA,California,EUREKA,95501-2121,(707) 441-8750,40.79244091,-124.1824341,11/3/1994
24965,New Britain,Warehouse,405 HARTFORD RD,US,NE,CT,Connecticut,NEW BRITAIN,06053-1507,(860) 893-7001,41.70934,-72.76613,10/15/2015
24968,West Springfield,Warehouse,119 DAGGETT DR,US,NE,MA,Massachusetts,WEST SPRINGFIELD,01089-4672,(413) 747-5518,42.132364,-72.621674,11/8/1990
24969,Riverhead,Warehouse,1768 OLD COUNTRY RD,US,NE,NY,New York,RIVERHEAD,11901-3146,(631) 655-0110,40.92454,-72.703683,6/26/2014
24971,Enfield,Warehouse,75 FRESHWATER BLVD,US,NE,CT,Connecticut,ENFIELD,06082-3854,(860) 394-2000,41.9935,-72.576,7/29/2004
24972,South Windsor,Warehouse,1220 TAMARACK AVE,US,NE,CT,Connecticut,SOUTH WINDSOR,6074,(860) 474-4031,41.8177274,-72.5566389,11/16/2021
24979,E Lyme,Warehouse,284 FLANDERS RD,US,NE,CT,Connecticut,EAST LYME,06333-1710,(860) 691-9647,41.359479,-72.212771,11/14/2019
24980,Palm Beach Gardens,Warehouse,3250 NORTHLAKE BLVD,US,SE,FL,Florida,PALM BEACH GARDENS,33403-1702,(561) 776-3052,26.808339,-80.086924,5/18/1989
24981,Royal Palm Beach,Warehouse,11001 SOUTHERN BLVD,US,SE,FL,Florida,ROYAL PALM BEACH,33411-4240,(561) 803-8822,26.68102,-80.2195,4/13/2007
24983,Lantana,Warehouse,1873 LANTANA RD,US,SE,FL,Florida,LANTANA,33462-2698,(561) 533-0958,26.587399,-80.071249,11/15/1984
24985,Coral Springs,Warehouse,4621 CORAL RIDGE DR.,US,SE,FL,Florida,CORAL SPRINGS,33076-2200,(954) 715-8240,26.287747,-80.2824665,2/7/2019
24986,Boca Raton,Warehouse,17800 CONGRESS AVE,US,SE,FL,Florida,BOCA RATON,33487-1200,(561) 981-5004,26.41213,-80.10209,8/30/1990
24988,Pompano,Warehouse,1800 W SAMPLE RD,US,SE,FL,Florida,POMPANO BEACH,33064-1324,(954) 968-7114,26.274466,-80.148158,11/29/1988
24989,Nashua,Warehouse,311 DANIEL WEBSTER HWY,US,NE,NH,New Hampshire,NASHUA,03060-5702,(603) 888-3640,42.70279,-71.440963,3/18/1992
24990,Pembroke Pines,Warehouse,15915 PINES BLVD,US,SE,FL,Florida,PEMBROKE PINES,33027-1201,(954) 266-3460,26.00776,-80.361207,10/14/2005
24991,Davie,Warehouse,1890 S UNIVERSITY DR,US,SE,FL,Florida,DAVIE,33324-5808,(954) 370-8990,26.096724,-80.251043,8/17/1989
24992,Waltham,Warehouse,71 2ND AVE,US,NE,MA,Massachusetts,WALTHAM,02451-1107,(781) 622-3883,42.396471,-71.264089,11/10/1993
24993,Miami Lakes,Warehouse,16580 NW 59TH AVE,US,SE,FL,Florida,MIAMI LAKES,33014-5611,(305) 825-9818,25.919146,-80.297293,12/12/1992
24994,Dedham,Warehouse,200 LEGACY BLVD,US,NE,MA,Massachusetts,DEDHAM,02026-2653,(781) 251-9975,42.23103,-71.17493,3/17/1998
24995,Miami,Warehouse,7795 WEST FLAGLER STREET,US,SE,FL,Florida,MIAMI,33144-2359,(786) 482-7135,25.774542,-80.321851,10/26/1989
24996,N Miami,Warehouse,14800 SOLE MIA WAY,US,SE,FL,Florida,NORTH MIAMI,33181,(305) 944-8711,25.9137,-80.154222,12/12/1992
24997,Kendall,Warehouse,13450 SW 120TH ST,US,SE,FL,Florida,MIAMI,33186-7393,(305) 964-4227,25.656335,-80.412516,11/16/1988
24998,Everett MA,Warehouse,2 MYSTIC VIEW RD,US,NE,MA,Massachusetts,EVERETT,02149-2428,(617) 544-4806,42.401557,-71.070461,11/21/2002
24999,Avon MA,Warehouse,120 STOCKWELL DR,US,NE,MA,Massachusetts,AVON,02322-1149,(508) 232-4000,42.134923,-71.067857,9/12/1991
25000,Danvers,Warehouse,11 NEWBURY ST,US,NE,MA,Massachusetts,DANVERS,01923-1014,(978) 750-1000,42.556821,-70.979108,11/29/1990
25012,Juneau,Warehouse,5225 COMMERCIAL BLVD,US,NW,AK,Alaska,JUNEAU,99801-7210,(907) 780-6740,58.35778,-134.482631,11/4/1993
25014,W Bayamon,Warehouse,"PR-2, KM 15.5",US,SE,PR,Puerto Rico,BAYAMON,961,(787) 474-6930,18.404039,-66.194697,11/17/2001
25015,E Bayamon,Warehouse,125 CALLE A,US,SE,PR,Puerto Rico,BAYAMON,959,(787) 993-9303,18.3845454,-66.1387526,7/27/2006
25016,Carolina,Warehouse,1185 AVE 65 INFANTERIA,US,SE,PR,Puerto Rico,SAN JUAN,00924-3403,(787) 999-7230,18.40191,-65.99616,11/22/2002
25017,Caguas,Warehouse,"200 AVE RAFAEL CORDERO, PR#30",US,SE,PR,Puerto Rico,CAGUAS BAIROA WARD,00725-4302,(787) 653-6930,18.246942,-66.024203,11/17/2001
25018,Fairbanks,Warehouse,48 COLLEGE RD,US,NW,AK,Alaska,FAIRBANKS,99701-1706,(907) 205-3607,64.851944,-147.708494,11/20/2018
25019,NE Anchorage,Warehouse,4125 DEBARR RD,US,NW,AK,Alaska,ANCHORAGE,99508-3115,(907) 269-9510,61.20968,-149.80429,11/5/1992
25020,Anchorage,Warehouse,330 W DIMOND BLVD,US,NW,AK,Alaska,ANCHORAGE,99515-1903,(907) 349-2335,61.1446,-149.885433,10/25/1984
25021,Maui,Warehouse,540 HALEAKALA HWY,US,LA,HI,Hawaii,KAHULUI,96732-2302,(808) 877-5241,20.88789,-156.450595,5/26/1995
25022,Kona,Warehouse,73-5600 MAIAU ST,US,LA,HI,Hawaii,KAILUA KONA,96740-2630,(808) 331-4800,19.68668,-156.01999,11/22/1993
25023,Hawaii Kai,Warehouse,333 A KEAHOLE STREET,US,LA,HI,Hawaii,HONOLULU,96825-3404,(808) 396-5538,21.28413,-157.71037,9/3/1992
25024,Iwilei,Warehouse,525 ALAKAWA ST,US,LA,HI,Hawaii,HONOLULU,96817-5764,(808) 526-6100,21.3182,-157.8705,5/12/1988
25025,Waipio,Warehouse,94-1231 KA UKA BLVD,US,LA,HI,Hawaii,WAIPAHU,96797-4495,(808) 678-6103,21.41951,-158.00574,7/20/2000
25026,Kapolei,Warehouse,4589 KAPOLEI PKWY,US,LA,HI,Hawaii,KAPOLEI,96707-1879,(808) 674-3900,21.327927,-158.08837,2/27/2009
25027,Kauai,Warehouse,4300 NUHOU ST.,US,LA,HI,Hawaii,LIHUE,96766-8002,(808) 241-4000,21.967733,-159.382315,10/17/2006
